{
"type": "FeatureCollection",
"name": "2022_Soest_70m_gistar_urbanOnly_hotcold_dissolved_4326",
"crs": { "type": "name", "properties": { "name": "urn:ogc:def:crs:OGC:1.3:CRS84" } },
"features": [
{ "type": "Feature", "properties": { "spot": "coldspot" }, "geometry": { "type": "MultiPolygon", "coordinates": [ [ [ [ 7.98660498966434, 51.533575959520377 ], [ 7.986591014198726, 51.534205278262597 ], [ 7.987600072485723, 51.534213990153859 ], [ 7.987586110422899, 51.534843309020687 ], [ 7.988595183126977, 51.5348520124301 ], [ 7.989604256337455, 51.53486070716243 ], [ 7.989618190579855, 51.534231387905763 ], [ 7.989632124316382, 51.533602068578496 ], [ 7.989646057547064, 51.532972749180651 ], [ 7.989659990271921, 51.532343429712228 ], [ 7.98865097269931, 51.532334735759171 ], [ 7.987641955633005, 51.532326033129806 ], [ 7.986632939073507, 51.532317321824145 ], [ 7.985623923021322, 51.532308601842217 ], [ 7.98560993466177, 51.532937920530244 ], [ 7.985595945794375, 51.533567239147651 ], [ 7.98660498966434, 51.533575959520377 ] ] ], [ [ [ 8.021854393185542, 51.537022332781831 ], [ 8.020845262300774, 51.537013915155491 ], [ 8.019836131906326, 51.537005488851165 ], [ 8.019822613018681, 51.537634813580546 ], [ 8.019809093640188, 51.538264138239484 ], [ 8.019795573770827, 51.538893462828 ], [ 8.020804745905744, 51.538901889698806 ], [ 8.02081825186111, 51.538272564921456 ], [ 8.021827410572397, 51.538280982925059 ], [ 8.021840902123888, 51.537651657888652 ], [ 8.022850047411497, 51.537660067025428 ], [ 8.023859193188439, 51.537668467484011 ], [ 8.024868339454208, 51.537676859264387 ], [ 8.024881788776694, 51.537047533592855 ], [ 8.024895237610885, 51.536418207850915 ], [ 8.024908685956801, 51.53578888203856 ], [ 8.024922133814465, 51.535159556155804 ], [ 8.024935581183902, 51.534530230202662 ], [ 8.024949028065135, 51.533900904179106 ], [ 8.023939965270264, 51.533892513526922 ], [ 8.022930902964081, 51.533884114197683 ], [ 8.022917428261763, 51.534513439845014 ], [ 8.022903953070234, 51.535142765421924 ], [ 8.022890477389462, 51.535772090928411 ], [ 8.021881373839433, 51.535763682356929 ], [ 8.021867883757382, 51.536393007604595 ], [ 8.021854393185542, 51.537022332781831 ] ] ], [ [ [ 8.048118223837289, 51.535979484966255 ], [ 8.047109108207202, 51.535971293338001 ], [ 8.046099993054261, 51.535963093031889 ], [ 8.046113148763709, 51.53533376324544 ], [ 8.045104048000466, 51.535325554445457 ], [ 8.045090878378966, 51.535954884047975 ], [ 8.044081764181826, 51.535946666386202 ], [ 8.044068580169638, 51.53657599573426 ], [ 8.04405539567877, 51.537205325012017 ], [ 8.04506453770148, 51.537213543042071 ], [ 8.04607368020239, 51.537221752393918 ], [ 8.046086836867161, 51.536592422748065 ], [ 8.04709596593268, 51.536600623237916 ], [ 8.047082823180995, 51.537229953067538 ], [ 8.048091966636788, 51.537238145062915 ], [ 8.048105095475368, 51.536608815049732 ], [ 8.048118223837289, 51.535979484966255 ] ] ], [ [ [ 8.049848134809915, 51.549841095856422 ], [ 8.049835023803656, 51.550470424760448 ], [ 8.050844460981338, 51.550478594564915 ], [ 8.050857558063813, 51.549849265477803 ], [ 8.050870654670661, 51.549219936320426 ], [ 8.049861245340042, 51.549211766882138 ], [ 8.049848134809915, 51.549841095856422 ] ] ], [ [ [ 8.047737307733447, 51.554230028852132 ], [ 8.046727788432838, 51.554221831898495 ], [ 8.046714632311192, 51.554851159760091 ], [ 8.045705099561157, 51.554842953939072 ], [ 8.045691929033943, 51.555472281546464 ], [ 8.046701475711712, 51.555480487551392 ], [ 8.047711022867338, 51.555488684872451 ], [ 8.047724165539055, 51.554859356897424 ], [ 8.047737307733447, 51.554230028852132 ] ] ], [ [ [ 8.02947227345383, 51.558486426604972 ], [ 8.028462665332635, 51.558478072039499 ], [ 8.028449255115349, 51.559107396068427 ], [ 8.02843584441097, 51.55973672002699 ], [ 8.028422433219468, 51.560366043915167 ], [ 8.02943208313331, 51.560374399042395 ], [ 8.029418685386563, 51.56100372304747 ], [ 8.030428349718958, 51.561012069676501 ], [ 8.030441733533788, 51.560382745484354 ], [ 8.031451384420397, 51.560391083241051 ], [ 8.03146475381766, 51.55976175879168 ], [ 8.031478122729323, 51.559132434271952 ], [ 8.03046849970508, 51.559124096889001 ], [ 8.030481882061588, 51.558494772485759 ], [ 8.02947227345383, 51.558486426604972 ] ] ], [ [ [ 8.057650443034653, 51.563122132607695 ], [ 8.057663452096515, 51.562492803648965 ], [ 8.058673157716647, 51.562500907444416 ], [ 8.059682863808815, 51.562509002553753 ], [ 8.059695844530966, 51.561879673161719 ], [ 8.058686152372395, 51.56187157823382 ], [ 8.05869914655613, 51.561242248952993 ], [ 8.058712140267875, 51.560612919601951 ], [ 8.057702476446947, 51.560604816351372 ], [ 8.056692813098492, 51.560596704415246 ], [ 8.056679791521644, 51.561226033402846 ], [ 8.056666769471796, 51.561855362320237 ], [ 8.05565707873078, 51.561847241334569 ], [ 8.054647388463295, 51.561839111662991 ], [ 8.053637698669844, 51.561830973305518 ], [ 8.052628009350935, 51.561822826262166 ], [ 8.051618320507075, 51.561814670532925 ], [ 8.051605228316788, 51.562443998468027 ], [ 8.050595526015067, 51.562435833869934 ], [ 8.050582419415283, 51.563065161551783 ], [ 8.050569312339395, 51.563694489163375 ], [ 8.050556204787377, 51.564323816704707 ], [ 8.050543096759208, 51.564953144175782 ], [ 8.050529988254867, 51.565582471576612 ], [ 8.049520216754679, 51.565574297376443 ], [ 8.049507093837715, 51.566203624523787 ], [ 8.049493970444024, 51.566832951600858 ], [ 8.048484171547225, 51.566824768346855 ], [ 8.048471033739366, 51.567454095170248 ], [ 8.048457895454231, 51.568083421923369 ], [ 8.048444756691797, 51.568712748606231 ], [ 8.048431617452037, 51.569342075218813 ], [ 8.049441472101542, 51.569350259206523 ], [ 8.050451327227885, 51.569358434506057 ], [ 8.050464438589749, 51.568729107526792 ], [ 8.051474280253446, 51.56873727395508 ], [ 8.052484122392947, 51.568745431695362 ], [ 8.053493965007748, 51.568753580747632 ], [ 8.053507034077809, 51.568124253149563 ], [ 8.053520102673099, 51.567494925481249 ], [ 8.053533170793646, 51.566865597742698 ], [ 8.054542972069125, 51.566873737559582 ], [ 8.055552773818825, 51.566881868688995 ], [ 8.055565813590572, 51.566252540515521 ], [ 8.05557885288863, 51.565623212271802 ], [ 8.055591891713021, 51.564993883957847 ], [ 8.055604930063771, 51.564364555573654 ], [ 8.055617967940897, 51.563735227119224 ], [ 8.055631005344425, 51.563105898594578 ], [ 8.055644042274379, 51.562476569999689 ], [ 8.056653746948923, 51.562484691167384 ], [ 8.056640723953006, 51.563114019944287 ], [ 8.057650443034653, 51.563122132607695 ] ] ], [ [ [ 8.041349411007003, 51.569913869289245 ], [ 8.042359276243733, 51.569922114278789 ], [ 8.042346052410055, 51.570551439646074 ], [ 8.043355932067003, 51.570559676131907 ], [ 8.043369141960872, 51.569930350580016 ], [ 8.043382351374838, 51.569301024957824 ], [ 8.042372499597006, 51.56929278884121 ], [ 8.041362648299556, 51.569284544036464 ], [ 8.041375885111217, 51.568655218713388 ], [ 8.040366048233409, 51.568646965405534 ], [ 8.039356211836971, 51.568638703409789 ], [ 8.03934294714783, 51.569268028362693 ], [ 8.039329681976787, 51.569897353245267 ], [ 8.040339546251186, 51.569905615611404 ], [ 8.041349411007003, 51.569913869289245 ] ] ], [ [ [ 8.049008069530046, 51.59011800405915 ], [ 8.049021210578687, 51.589488679581677 ], [ 8.048010909615856, 51.589480489721339 ], [ 8.047000609131105, 51.589472291166601 ], [ 8.047013777612438, 51.58884296698627 ], [ 8.048024064142068, 51.588851165357212 ], [ 8.048037218190222, 51.588221840922827 ], [ 8.04702694561521, 51.588213642735667 ], [ 8.046016673518738, 51.588205435854498 ], [ 8.046003491561375, 51.588834759921099 ], [ 8.045990309124941, 51.589464083917456 ], [ 8.045977126209413, 51.590093407843533 ], [ 8.046987440171183, 51.590101615276666 ], [ 8.047997754611563, 51.590109814015207 ], [ 8.047984599129167, 51.590739138238824 ], [ 8.048994928003809, 51.590747328466371 ], [ 8.049008069530046, 51.59011800405915 ] ] ], [ [ [ 8.058248371144485, 51.534172927818517 ], [ 8.058235383324531, 51.534802259937642 ], [ 8.057226290774921, 51.534794155451593 ], [ 8.057213288571607, 51.535423487318873 ], [ 8.058222395033035, 51.535431591986523 ], [ 8.05820940626997, 51.536060923965188 ], [ 8.058196417035317, 51.536690255873609 ], [ 8.058183427329052, 51.537319587711792 ], [ 8.058170437151151, 51.537948919479732 ], [ 8.057161275037398, 51.537940814085587 ], [ 8.057148270473494, 51.538570145601675 ], [ 8.058157446501594, 51.538578251177455 ], [ 8.058144455380354, 51.53920758280492 ], [ 8.058131463787415, 51.539836914362162 ], [ 8.058118471722748, 51.540466245849188 ], [ 8.058105479186333, 51.541095577265956 ], [ 8.058092486178149, 51.541724908612508 ], [ 8.05807949269817, 51.542354239888809 ], [ 8.059088752694752, 51.542362337874614 ], [ 8.060098013162644, 51.542370427180501 ], [ 8.061107274101341, 51.54237850780649 ], [ 8.061120225829061, 51.541749175986354 ], [ 8.062129473320596, 51.541757247751519 ], [ 8.06214241066108, 51.541127915680285 ], [ 8.061133177086505, 51.541119844095995 ], [ 8.060123943982186, 51.541111763832163 ], [ 8.059114711348627, 51.541103674888824 ], [ 8.059127689968655, 51.540474343290583 ], [ 8.05914066811744, 51.539845011622113 ], [ 8.059153645795005, 51.539215679883419 ], [ 8.059166623001371, 51.538586348074503 ], [ 8.059179599736563, 51.537957016195342 ], [ 8.060188762793127, 51.537965104232427 ], [ 8.060201725143282, 51.537335772101798 ], [ 8.061210874756586, 51.537343851279275 ], [ 8.061197926320338, 51.537973183590942 ], [ 8.062207090317694, 51.537981254270896 ], [ 8.062220024840013, 51.537351921778381 ], [ 8.062232958892718, 51.53672258921565 ], [ 8.062245892475829, 51.536093256582689 ], [ 8.061236770218748, 51.536085186445277 ], [ 8.060227648431741, 51.536077107629879 ], [ 8.060240609370087, 51.535447775288574 ], [ 8.059231501966032, 51.535439687976435 ], [ 8.059244476345686, 51.534810355746131 ], [ 8.059257450254302, 51.534181023445598 ], [ 8.058248371144485, 51.534172927818517 ] ] ], [ [ [ 8.05858218190817, 51.566906209952457 ], [ 8.059591985549678, 51.566914306331959 ], [ 8.059604969573009, 51.56628497743143 ], [ 8.059617953124674, 51.565655648460691 ], [ 8.059630936204696, 51.565026319419722 ], [ 8.058621174373082, 51.565018223584616 ], [ 8.058634170917106, 51.56438889465489 ], [ 8.057624423493216, 51.564380790314509 ], [ 8.057611413013595, 51.565010119062585 ], [ 8.057598402061343, 51.565639447740431 ], [ 8.057585390636435, 51.566268776348046 ], [ 8.057572378738852, 51.566898104885439 ], [ 8.05858218190817, 51.566906209952457 ] ] ], [ [ [ 8.058218047221583, 51.584527385578227 ], [ 8.058231058412046, 51.583898058825206 ], [ 8.058244069129703, 51.583268732001976 ], [ 8.057233903417661, 51.583260622209941 ], [ 8.057220878749215, 51.583889948851379 ], [ 8.056210699559697, 51.583881830184815 ], [ 8.056223738178909, 51.583252503725362 ], [ 8.055213573413955, 51.583244376548258 ], [ 8.055200520844, 51.583873702825514 ], [ 8.055187467799716, 51.58450302903254 ], [ 8.055174414281085, 51.585132355169343 ], [ 8.05618462089979, 51.585140482893046 ], [ 8.056197660466665, 51.584511156574031 ], [ 8.057207853607457, 51.584519275422601 ], [ 8.058218047221583, 51.584527385578227 ] ] ], [ [ [ 8.057194827992362, 51.585148601923613 ], [ 8.05618462089979, 51.585140482893046 ], [ 8.056171580859051, 51.585769809141809 ], [ 8.057181801903909, 51.585777928354403 ], [ 8.057194827992362, 51.585148601923613 ] ] ], [ [ [ 8.054151140191506, 51.585753544636724 ], [ 8.053140920569833, 51.585745399344233 ], [ 8.053127838196961, 51.586374724975578 ], [ 8.05413807177136, 51.58638287045067 ], [ 8.054151140191506, 51.585753544636724 ] ] ], [ [ [ 8.057116664360471, 51.588924559455108 ], [ 8.058126955647859, 51.588932670883509 ], [ 8.058113940674131, 51.589561997074838 ], [ 8.05912424638988, 51.589570099990588 ], [ 8.059137247408238, 51.588940773617601 ], [ 8.060147539641095, 51.588948867657379 ], [ 8.060160526232082, 51.588319541032739 ], [ 8.061170804982002, 51.588327626196929 ], [ 8.061183777146631, 51.587698299320834 ], [ 8.060173512351117, 51.58769021433789 ], [ 8.060186497998224, 51.587060887572839 ], [ 8.059176247628512, 51.587052794077408 ], [ 8.05918924675708, 51.586423467423593 ], [ 8.058179010813129, 51.586415365416045 ], [ 8.057168775342074, 51.586407254714963 ], [ 8.057155748306837, 51.587036581005336 ], [ 8.05714272079817, 51.587665907225457 ], [ 8.056132457893412, 51.587657787466831 ], [ 8.055122195462609, 51.587649659014289 ], [ 8.05510913957189, 51.588278984799977 ], [ 8.055096083206683, 51.588908310515414 ], [ 8.055083026366969, 51.589537636160635 ], [ 8.056093330662167, 51.589545765159862 ], [ 8.056106373546575, 51.588916439332408 ], [ 8.056119415956982, 51.588287113434724 ], [ 8.057129692816057, 51.588295233375398 ], [ 8.057116664360471, 51.588924559455108 ] ] ], [ [ [ 8.051002473094989, 51.591393007540645 ], [ 8.050989358527906, 51.592022332174004 ], [ 8.051999716747863, 51.592030496683172 ], [ 8.053010075443963, 51.592038652497109 ], [ 8.054020434615699, 51.592046799615815 ], [ 8.054033507310988, 51.591417474433939 ], [ 8.054046579531169, 51.590788149181833 ], [ 8.055056911263922, 51.590796287240401 ], [ 8.055069969052722, 51.590166961735626 ], [ 8.055083026366969, 51.589537636160635 ], [ 8.054072722546302, 51.589529498466945 ], [ 8.053062419200673, 51.589521352078783 ], [ 8.052052116330591, 51.589513196996158 ], [ 8.051041813936562, 51.589505033219098 ], [ 8.051028700799293, 51.590134358063196 ], [ 8.051015587185445, 51.590763682837043 ], [ 8.051002473094989, 51.591393007540645 ] ] ], [ [ [ 8.074355396042861, 51.536189421345995 ], [ 8.075364524364968, 51.536197378668838 ], [ 8.07637365315008, 51.536205327313581 ], [ 8.076386391487469, 51.535575992099112 ], [ 8.077395506822334, 51.535583931887814 ], [ 8.077408230785002, 51.534954596425273 ], [ 8.076399129362382, 51.534946656814498 ], [ 8.076411866774835, 51.534317321459731 ], [ 8.075402779726391, 51.534309373349323 ], [ 8.075390028402218, 51.534938708525978 ], [ 8.074380927905015, 51.534930751559749 ], [ 8.074368162205682, 51.535560086487948 ], [ 8.074355396042861, 51.536189421345995 ] ] ], [ [ [ 8.059786696385109, 51.557474365451419 ], [ 8.060796291494016, 51.557482450424843 ], [ 8.060783328002014, 51.55811178048959 ], [ 8.060770364039147, 51.558741110484135 ], [ 8.060757399605391, 51.559370440408458 ], [ 8.060744434700727, 51.559999770262586 ], [ 8.060731469325129, 51.560629100046484 ], [ 8.060718503478574, 51.56125842976018 ], [ 8.060705537161043, 51.561887759403668 ], [ 8.06171523026212, 51.561895836959671 ], [ 8.062724923833693, 51.561903905829709 ], [ 8.062737862284932, 51.561274575824321 ], [ 8.062750800266201, 51.560645245748752 ], [ 8.063760466441908, 51.56065330557152 ], [ 8.063773390021066, 51.560023975245102 ], [ 8.064783042734017, 51.560032026201839 ], [ 8.064795951912073, 51.559402695624797 ], [ 8.063786313130809, 51.559394644848503 ], [ 8.063799235771159, 51.558765314381695 ], [ 8.063812157942138, 51.558135983844693 ], [ 8.062802547492076, 51.558127924744461 ], [ 8.062815483123854, 51.55749859431787 ], [ 8.062828418285802, 51.556869263821092 ], [ 8.06383800087608, 51.556877322560084 ], [ 8.063850921639085, 51.556247991812484 ], [ 8.062841352977943, 51.556239933254112 ], [ 8.062854287200295, 51.555610602616923 ], [ 8.063863841932809, 51.555618660994696 ], [ 8.063876761757278, 51.554989330106707 ], [ 8.062867220952885, 51.55498127190954 ], [ 8.062880154235737, 51.554351941131934 ], [ 8.06187062782868, 51.554343874431723 ], [ 8.061857680618235, 51.554973205028531 ], [ 8.06084814075383, 51.554965129463696 ], [ 8.060835179145062, 51.555594459809299 ], [ 8.060822217065517, 51.556223790084701 ], [ 8.05981264981525, 51.556215705473669 ], [ 8.059799673335842, 51.556845035497652 ], [ 8.059786696385109, 51.557474365451419 ] ] ], [ [ [ 8.072732278467129, 51.566389437457737 ], [ 8.072719475628652, 51.567018768699647 ], [ 8.072706672325065, 51.56764809987142 ], [ 8.071696848653158, 51.567640116251205 ], [ 8.071684030945997, 51.568269447173883 ], [ 8.07269386855635, 51.568277430973041 ], [ 8.073703706631854, 51.5682854060842 ], [ 8.073716496462103, 51.567656074803821 ], [ 8.074726321063768, 51.567664041048381 ], [ 8.074739096491411, 51.567034709519312 ], [ 8.075748907619188, 51.567042666897692 ], [ 8.075761668645239, 51.566413335120117 ], [ 8.075774429207723, 51.565784003272412 ], [ 8.076784212924554, 51.56579195160684 ], [ 8.076796959086984, 51.565162619510829 ], [ 8.077806729330327, 51.565170558980014 ], [ 8.077819461093716, 51.564541226635939 ], [ 8.076809704786399, 51.564533287344702 ], [ 8.076822450022817, 51.563903955108458 ], [ 8.07581270811399, 51.563896007308472 ], [ 8.075825466822426, 51.563266675180238 ], [ 8.074815739312045, 51.563258718871921 ], [ 8.074802966668642, 51.563888050821831 ], [ 8.073793225687279, 51.56388008564852 ], [ 8.073780438644437, 51.564509417349761 ], [ 8.073767651137086, 51.565138748980871 ], [ 8.072757882748848, 51.565130774763432 ], [ 8.072745080840519, 51.565760106145667 ], [ 8.072732278467129, 51.566389437457737 ] ] ], [ [ [ 8.0652894157313, 51.584583913264709 ], [ 8.064279218818013, 51.584575863959884 ], [ 8.064266290866012, 51.585205191729465 ], [ 8.06527650173126, 51.585213241214745 ], [ 8.066286713065812, 51.585221282006813 ], [ 8.066299613113866, 51.584591953876533 ], [ 8.0652894157313, 51.584583913264709 ] ] ], [ [ [ 8.064266290866012, 51.585205191729465 ], [ 8.063256080470575, 51.585197133550992 ], [ 8.06324313809632, 51.585826461069743 ], [ 8.064253362444202, 51.585834519428857 ], [ 8.064266290866012, 51.585205191729465 ] ] ], [ [ [ 8.076488281539218, 51.530541307858059 ], [ 8.077497285590262, 51.530549246223572 ], [ 8.078506290103102, 51.530557175912705 ], [ 8.079515295077234, 51.530565096925443 ], [ 8.080524300512153, 51.530573009261794 ], [ 8.080536979055076, 51.529943672705656 ], [ 8.080549657137738, 51.529314336079381 ], [ 8.080562334760161, 51.528684999382975 ], [ 8.079553371048545, 51.528677087578508 ], [ 8.078544407797651, 51.528669167098215 ], [ 8.077535445007982, 51.528661237942117 ], [ 8.077548163890397, 51.528031901707998 ], [ 8.076539215469149, 51.528023964053972 ], [ 8.075530267510116, 51.528016017724347 ], [ 8.074521320013796, 51.528008062719131 ], [ 8.07450855941137, 51.528637398419079 ], [ 8.074495798345701, 51.529266734048868 ], [ 8.075504773655817, 51.529274689410585 ], [ 8.075492026034539, 51.529904025148461 ], [ 8.075479277950475, 51.530533360816193 ], [ 8.076488281539218, 51.530541307858059 ] ] ], [ [ [ 8.084446700038603, 51.536268604058449 ], [ 8.084434072545367, 51.536897940620726 ], [ 8.084421444593646, 51.537527277112915 ], [ 8.08341228429534, 51.537519397540244 ], [ 8.083399641970697, 51.538148733785739 ], [ 8.08338699918702, 51.538778069961111 ], [ 8.08337435594429, 51.539407406066388 ], [ 8.084383557987367, 51.539415286168797 ], [ 8.084370928201494, 51.540044622380542 ], [ 8.085380144619098, 51.540052493980177 ], [ 8.085392760489015, 51.539423157592026 ], [ 8.086401963448729, 51.539431020336103 ], [ 8.086414564945107, 51.538801683701656 ], [ 8.086427165983945, 51.538172346997129 ], [ 8.086439766565269, 51.537543010222493 ], [ 8.087448928237574, 51.537550863759385 ], [ 8.087461514447419, 51.536921526738681 ], [ 8.087474100200298, 51.53629218964786 ], [ 8.087486685496227, 51.535662852486951 ], [ 8.087499270335236, 51.535033515255947 ], [ 8.086490164315819, 51.535025662422974 ], [ 8.086502762609882, 51.534396325297855 ], [ 8.085493670959812, 51.534388463963218 ], [ 8.08548105875381, 51.535017800912179 ], [ 8.084471953649713, 51.535009930723561 ], [ 8.084459327073379, 51.535639267426056 ], [ 8.084446700038603, 51.536268604058449 ] ] ], [ [ [ 8.08056944725115, 51.578410299481689 ], [ 8.079559382846954, 51.578402382347967 ], [ 8.079546668797589, 51.579031713504854 ], [ 8.080556747149016, 51.579039630816062 ], [ 8.08056944725115, 51.578410299481689 ] ] ], [ [ [ 8.081554139346068, 51.579676870877428 ], [ 8.081541452269215, 51.580306202248885 ], [ 8.082551559439162, 51.580314102531482 ], [ 8.083561667069619, 51.580321994122279 ], [ 8.08354900742936, 51.580951325777626 ], [ 8.08455912946866, 51.580959208853315 ], [ 8.085569251967479, 51.580967083236978 ], [ 8.08558188371004, 51.580337751228399 ], [ 8.085594514993611, 51.579708419149732 ], [ 8.084584420392005, 51.579700545119081 ], [ 8.083574326249876, 51.579692662396823 ], [ 8.082564232567726, 51.579684770982929 ], [ 8.081554139346068, 51.579676870877428 ] ] ], [ [ [ 8.079495807980045, 51.581549037431351 ], [ 8.07950852387749, 51.580919706554894 ], [ 8.079521239312879, 51.580290375608335 ], [ 8.079533954286239, 51.579661044591653 ], [ 8.078523862449085, 51.579653118411379 ], [ 8.078511133527504, 51.580282449250383 ], [ 8.078498404143387, 51.580911780019264 ], [ 8.077488284871844, 51.580903844791663 ], [ 8.077475541075955, 51.581533175312551 ], [ 8.07848567429671, 51.581541110718035 ], [ 8.079495807980045, 51.581549037431351 ] ] ], [ [ [ 8.085480816915954, 51.58537240533483 ], [ 8.086491037530148, 51.585380272260842 ], [ 8.087501258603005, 51.585388130493463 ], [ 8.087488651093619, 51.586017462293931 ], [ 8.087476043126056, 51.586646794024333 ], [ 8.088486292563532, 51.586654643915487 ], [ 8.089496542458699, 51.586662485112825 ], [ 8.089509122519265, 51.586033153030677 ], [ 8.089521702122671, 51.585403820878469 ], [ 8.089534281268936, 51.584774488656187 ], [ 8.089546859958084, 51.584145156363853 ], [ 8.088536665873912, 51.584137315869597 ], [ 8.088549258057443, 51.583507983682971 ], [ 8.088561849783396, 51.582878651426263 ], [ 8.089572015965111, 51.582886491569006 ], [ 8.089584593283037, 51.582257159066486 ], [ 8.089597170143932, 51.581627826493929 ], [ 8.090607308882225, 51.581635657592912 ], [ 8.090619871336635, 51.581006324774727 ], [ 8.091629996581933, 51.581014147006101 ], [ 8.091642544630872, 51.580384813942516 ], [ 8.092652656383128, 51.580392627306651 ], [ 8.092665190027608, 51.579763293997871 ], [ 8.092677723216665, 51.579133960619039 ], [ 8.091667639360919, 51.579126147605187 ], [ 8.090657555961078, 51.579118325899842 ], [ 8.089647473017651, 51.579110495503009 ], [ 8.089634897984656, 51.579739828355841 ], [ 8.088624801550216, 51.57973198909179 ], [ 8.087614705573223, 51.57972414113609 ], [ 8.086604610054186, 51.579716284488732 ], [ 8.08659199271899, 51.58034561674372 ], [ 8.086579374925313, 51.58097494892862 ], [ 8.085569251967479, 51.580967083236978 ], [ 8.085556619765903, 51.581596415175483 ], [ 8.085543987105295, 51.5822257470439 ], [ 8.08553135398563, 51.58285507884225 ], [ 8.085518720406885, 51.583484410570513 ], [ 8.085506086369037, 51.584113742228702 ], [ 8.085493451872068, 51.584743073816796 ], [ 8.085480816915954, 51.58537240533483 ] ] ], [ [ [ 8.078090819498893, 51.601050327604469 ], [ 8.077080253601135, 51.601042386682167 ], [ 8.077067494975374, 51.601671714959366 ], [ 8.078078074838571, 51.601679656059709 ], [ 8.078090819498893, 51.601050327604469 ] ] ], [ [ [ 8.084823165948483, 51.618097547709461 ], [ 8.085834112788016, 51.618105423812608 ], [ 8.085846757671286, 51.617476095761738 ], [ 8.086857690991785, 51.61748396298492 ], [ 8.086870321436935, 51.616854634687591 ], [ 8.086882951422831, 51.616225306320196 ], [ 8.08789385724641, 51.61623316448761 ], [ 8.087906472795733, 51.615603835873955 ], [ 8.087919087886355, 51.614974507190254 ], [ 8.087931702518295, 51.614345178436501 ], [ 8.086920838625206, 51.614337320797667 ], [ 8.085909975191285, 51.614329454456467 ], [ 8.084899112217039, 51.614321579412902 ], [ 8.083888249702975, 51.614313695666979 ], [ 8.083875579165882, 51.614943023714794 ], [ 8.083862908168076, 51.615572351692535 ], [ 8.08385023670953, 51.616201679600216 ], [ 8.083837564790231, 51.616831007437803 ], [ 8.083824892410149, 51.617460335205344 ], [ 8.083812219569268, 51.618089662902804 ], [ 8.084823165948483, 51.618097547709461 ] ] ], [ [ [ 8.094737801958319, 51.526277496347625 ], [ 8.094725320852358, 51.526906835785844 ], [ 8.094712839293312, 51.527536175154012 ], [ 8.094700357281155, 51.528165514452105 ], [ 8.094687874815873, 51.528794853680125 ], [ 8.095696845377743, 51.528802635346302 ], [ 8.096705816392259, 51.528810408336511 ], [ 8.096693361289029, 51.529439747843028 ], [ 8.096680905733635, 51.530069087279493 ], [ 8.097689905016066, 51.530076851941701 ], [ 8.097677462917135, 51.530706191482096 ], [ 8.097665020366499, 51.531335530952433 ], [ 8.098674047918449, 51.531343287285871 ], [ 8.099683075921616, 51.531351034942539 ], [ 8.09969549065389, 51.53072169512479 ], [ 8.100704505198557, 51.530729433931285 ], [ 8.100716905571428, 51.530100093870082 ], [ 8.101725906657553, 51.530107823826775 ], [ 8.102734908193339, 51.530115545107058 ], [ 8.102747280299569, 51.529486204629599 ], [ 8.102759651956665, 51.528856864082115 ], [ 8.10175067823687, 51.528849143147859 ], [ 8.101763063352092, 51.528219802703369 ], [ 8.101775448017715, 51.52759046218884 ], [ 8.100766502561466, 51.527582732924955 ], [ 8.099757557555296, 51.52757499498545 ], [ 8.098748612999712, 51.527567248370339 ], [ 8.09876103893432, 51.526937908305925 ], [ 8.098773464417858, 51.526308568171487 ], [ 8.097764548125145, 51.526300813228318 ], [ 8.097776987062772, 51.525671473197569 ], [ 8.096768085126719, 51.525663709753161 ], [ 8.0957591836427, 51.525655937633751 ], [ 8.095746716894871, 51.526285277316376 ], [ 8.094737801958319, 51.526277496347625 ] ] ], [ [ [ 8.097503737929385, 51.590500901131264 ], [ 8.097491266325322, 51.591130234122517 ], [ 8.098501618007029, 51.591137998293497 ], [ 8.098514075653837, 51.590508665128198 ], [ 8.098526532847892, 51.589879331892881 ], [ 8.097516209080185, 51.589871568070009 ], [ 8.097503737929385, 51.590500901131264 ] ] ], [ [ [ 8.099586625495455, 51.58736975268409 ], [ 8.099574184066933, 51.587999086373301 ], [ 8.099561742186252, 51.588628419992496 ], [ 8.09954929985339, 51.589257753541695 ], [ 8.100559610569766, 51.589265499801144 ], [ 8.100547181740989, 51.58989483345399 ], [ 8.101557506865364, 51.589902571192219 ], [ 8.102567832440949, 51.58991030023553 ], [ 8.102555431074103, 51.590539634165111 ], [ 8.103565771057246, 51.590547354686613 ], [ 8.104576111490605, 51.590555066512991 ], [ 8.104563737587782, 51.591184400718561 ], [ 8.104551363235229, 51.591813734854135 ], [ 8.105561732033619, 51.59182143833079 ], [ 8.106572101281255, 51.591829133111922 ], [ 8.106559754395811, 51.592458467522739 ], [ 8.106547407061607, 51.593087801863561 ], [ 8.107557804675416, 51.593095488293791 ], [ 8.1085682027375, 51.593103166028108 ], [ 8.108555882873494, 51.593732500643426 ], [ 8.109566295342866, 51.593740169853717 ], [ 8.11057670825952, 51.593747830367889 ], [ 8.110589000204463, 51.593118495408902 ], [ 8.110601291702652, 51.592489160379955 ], [ 8.111611677147458, 51.592496811854886 ], [ 8.111623954240368, 51.591867476584454 ], [ 8.112634326172829, 51.591875119192267 ], [ 8.11264658886147, 51.591245783680534 ], [ 8.111636230887074, 51.591238141244055 ], [ 8.111648507087597, 51.590608805833718 ], [ 8.110638163516919, 51.590601154873369 ], [ 8.110650453228311, 51.589971819564603 ], [ 8.109640124061308, 51.589964160080818 ], [ 8.109652427282553, 51.589334824873795 ], [ 8.108642112519179, 51.589327156866936 ], [ 8.107631798203446, 51.589319480165301 ], [ 8.107644128889483, 51.588690145232327 ], [ 8.106633828977824, 51.588682460008236 ], [ 8.106646173171157, 51.588053125177566 ], [ 8.106658516915882, 51.587423790276922 ], [ 8.105648245363145, 51.587416096703237 ], [ 8.105660602613669, 51.586786761905081 ], [ 8.104650345464393, 51.586779059809892 ], [ 8.104637974259504, 51.587408394435379 ], [ 8.103627703605461, 51.587400683473383 ], [ 8.10261743340153, 51.587392963817244 ], [ 8.101607163648213, 51.587385235466975 ], [ 8.100596894346019, 51.58737749842259 ], [ 8.099586625495455, 51.58736975268409 ] ] ], [ [ [ 8.09954929985339, 51.589257753541695 ], [ 8.098538989589217, 51.589249998587555 ], [ 8.098526532847892, 51.589879331892881 ], [ 8.099536857068328, 51.589887087020884 ], [ 8.09954929985339, 51.589257753541695 ] ] ], [ [ [ 8.109492450522284, 51.597516177108062 ], [ 8.109480141486376, 51.598145511405605 ], [ 8.109467832003034, 51.59877484563318 ], [ 8.10945552207224, 51.599404179790781 ], [ 8.110466060647605, 51.599411841850824 ], [ 8.110478356614291, 51.598782507521435 ], [ 8.111488881672493, 51.598790160711978 ], [ 8.11150116322861, 51.598160826141033 ], [ 8.111513444338311, 51.597531491500156 ], [ 8.111525725001615, 51.596902156789312 ], [ 8.111538005218543, 51.59627282200853 ], [ 8.110527536011787, 51.596265169504292 ], [ 8.10951706725189, 51.596257508303125 ], [ 8.109504759110783, 51.596886842740574 ], [ 8.109492450522284, 51.597516177108062 ] ] ], [ [ [ 8.10298305456892, 51.620125978567337 ], [ 8.103994051547934, 51.620133698524718 ], [ 8.103981656484367, 51.62076302944125 ], [ 8.104992667895376, 51.620770740867265 ], [ 8.105005048977675, 51.620141409777801 ], [ 8.105017429609759, 51.619512078618371 ], [ 8.105029809791645, 51.61888274738898 ], [ 8.104018840322912, 51.618875036481718 ], [ 8.104031234034364, 51.618245705355264 ], [ 8.103020278996034, 51.618237985917197 ], [ 8.103007871304861, 51.618867316870556 ], [ 8.102995463162497, 51.619496647753941 ], [ 8.10298305456892, 51.620125978567337 ] ] ], [ [ [ 8.102933415682045, 51.622643301121158 ], [ 8.102945826080692, 51.622013970587673 ], [ 8.102958236028037, 51.621384639984207 ], [ 8.101947211537304, 51.621376910975933 ], [ 8.100936187498355, 51.621369173262998 ], [ 8.100923749586551, 51.621998503519627 ], [ 8.100911311222431, 51.622627833706275 ], [ 8.101922363226322, 51.622635571766239 ], [ 8.101909938393097, 51.623264902056434 ], [ 8.102921004832076, 51.623272631584683 ], [ 8.102933415682045, 51.622643301121158 ] ] ], [ [ [ 8.124957186524044, 51.529024529586138 ], [ 8.124969251767379, 51.528395185211728 ], [ 8.123960282191378, 51.528387655320778 ], [ 8.122951313053873, 51.528380116753794 ], [ 8.122939219995148, 51.529009460790547 ], [ 8.122927126497402, 51.52963880475739 ], [ 8.123936123450784, 51.529646343662208 ], [ 8.123948203040339, 51.529016999526455 ], [ 8.124957186524044, 51.529024529586138 ] ] ], [ [ [ 8.114720885082786, 51.536500945244072 ], [ 8.114708675001935, 51.537130287012907 ], [ 8.114696464477753, 51.537759628711761 ], [ 8.115705638754891, 51.537767239244189 ], [ 8.115693441702442, 51.538396581043642 ], [ 8.116702630337542, 51.538404183067556 ], [ 8.117711819415007, 51.53841177641241 ], [ 8.117723988637211, 51.537782434272465 ], [ 8.117736157417577, 51.53715309206256 ], [ 8.116726996169872, 51.537145499058013 ], [ 8.116739178422542, 51.536516156948309 ], [ 8.11573003153126, 51.536508555435432 ], [ 8.115742227255222, 51.535879213426114 ], [ 8.114733094720323, 51.53587160340529 ], [ 8.114745303914571, 51.535242261496542 ], [ 8.114757512665546, 51.534612919517826 ], [ 8.113748408399529, 51.534605301160184 ], [ 8.112739304577264, 51.534597674124662 ], [ 8.112727068001224, 51.535227015761741 ], [ 8.112714830980901, 51.535856357328854 ], [ 8.112702593516278, 51.536485698826006 ], [ 8.113711739077623, 51.53649332637427 ], [ 8.114720885082786, 51.536500945244072 ] ] ], [ [ [ 8.125652682094257, 51.545394984546149 ], [ 8.126662028232168, 51.545402501631827 ], [ 8.126649978997937, 51.546031844455577 ], [ 8.127659339494796, 51.546039353028235 ], [ 8.128668700428717, 51.54604685291941 ], [ 8.129678061799197, 51.546054344129061 ], [ 8.130687423605725, 51.546061826657208 ], [ 8.131696785847799, 51.546069300503831 ], [ 8.131708765474794, 51.545439956840681 ], [ 8.132718114230398, 51.545447421838482 ], [ 8.13273007950137, 51.544818077938146 ], [ 8.133739414770464, 51.544825534087501 ], [ 8.13375136568642, 51.544196189950213 ], [ 8.134760687468958, 51.544203637251513 ], [ 8.134772624030914, 51.543574292877437 ], [ 8.13478456015943, 51.542944948433515 ], [ 8.135793854535823, 51.542952386720444 ], [ 8.135805776311871, 51.542323042039946 ], [ 8.136815057202112, 51.542330471479801 ], [ 8.136826964626707, 51.541701126562941 ], [ 8.136838871618933, 51.541071781576221 ], [ 8.137848125104901, 51.541079202003083 ], [ 8.13786001774721, 51.540449856780221 ], [ 8.138869257747428, 51.540457268360946 ], [ 8.139878498178962, 51.54046467126183 ], [ 8.139890362555255, 51.539835325637128 ], [ 8.140899589500473, 51.539842719692473 ], [ 8.140911439529349, 51.539213373832226 ], [ 8.139902226500755, 51.539205979942587 ], [ 8.139914090015488, 51.538576634178192 ], [ 8.138904891333762, 51.538569231774964 ], [ 8.137895693083289, 51.538561820692479 ], [ 8.136886495264577, 51.538554400930764 ], [ 8.136874590001613, 51.539183746196926 ], [ 8.136862684306365, 51.539813091393228 ], [ 8.136850778178811, 51.540442436519648 ], [ 8.135841539042742, 51.540435007579262 ], [ 8.1348323003395, 51.540427569959064 ], [ 8.13482036594454, 51.541056914682493 ], [ 8.134808431116221, 51.541686259336025 ], [ 8.133799165010794, 51.54167881270228 ], [ 8.132789899339251, 51.541671357388346 ], [ 8.132777936240535, 51.542300701638062 ], [ 8.131768657084901, 51.542293237476677 ], [ 8.131756679632792, 51.542922581489243 ], [ 8.130747386993113, 51.542915108480031 ], [ 8.130735395186599, 51.543544452255233 ], [ 8.130723402944627, 51.54417379596056 ], [ 8.129714082900986, 51.544166313935456 ], [ 8.129702076303072, 51.544795657403213 ], [ 8.128692742774984, 51.544788166529308 ], [ 8.127683409683408, 51.544780666974297 ], [ 8.126674077028854, 51.544773158738167 ], [ 8.125664744811823, 51.544765641820952 ], [ 8.125652682094257, 51.545394984546149 ] ] ], [ [ [ 8.113332588754883, 51.556002883380579 ], [ 8.11434216633079, 51.556010507545288 ], [ 8.114354389720898, 51.555381167875275 ], [ 8.114366612667054, 51.554751828135316 ], [ 8.113357062949078, 51.554744204312364 ], [ 8.113344826074208, 51.555373543881458 ], [ 8.113332588754883, 51.556002883380579 ] ] ], [ [ [ 8.113320350991076, 51.556632222809753 ], [ 8.113332588754883, 51.556002883380579 ], [ 8.112323011623451, 51.555995250531403 ], [ 8.112310759929942, 51.556624589789507 ], [ 8.113320350991076, 51.556632222809753 ] ] ], [ [ [ 8.120035241530521, 51.574936258377654 ], [ 8.12002308803727, 51.575565596901136 ], [ 8.120010934102424, 51.576194935354692 ], [ 8.119998779725963, 51.576824273738339 ], [ 8.121008820352069, 51.576831842707875 ], [ 8.120996679480548, 51.577461181191261 ], [ 8.122006734494384, 51.577468741639294 ], [ 8.123016789948863, 51.577476293396145 ], [ 8.123004676530423, 51.578105632148386 ], [ 8.124014746372188, 51.57811317538313 ], [ 8.125024816653607, 51.57812070992648 ], [ 8.126034887374171, 51.578128235778443 ], [ 8.127044958533373, 51.578135752938977 ], [ 8.127032900465515, 51.578765092296514 ], [ 8.128042986010589, 51.578772600933945 ], [ 8.129053071993312, 51.578780100879762 ], [ 8.130063158413174, 51.578787592133935 ], [ 8.131073245269668, 51.578795074696465 ], [ 8.132083332562292, 51.578802548567353 ], [ 8.133093420290535, 51.578810013746569 ], [ 8.133105394671649, 51.578180673382057 ], [ 8.133117368617668, 51.577551332947692 ], [ 8.132107308784606, 51.577543868103149 ], [ 8.131097249387119, 51.577536394567346 ], [ 8.131109250791706, 51.576907054397964 ], [ 8.131121251760231, 51.576277714158721 ], [ 8.13113325229271, 51.57564837384961 ], [ 8.131145252389167, 51.575019033470632 ], [ 8.131157252049624, 51.574389693021793 ], [ 8.131169251274098, 51.573760352503065 ], [ 8.130159275985831, 51.573752871282252 ], [ 8.130171288718094, 51.573123530861352 ], [ 8.129161327810017, 51.573116041118347 ], [ 8.128151367338894, 51.573108542685461 ], [ 8.127141407305228, 51.573101035562701 ], [ 8.127153461430648, 51.572471695576162 ], [ 8.126143515778105, 51.572464179931998 ], [ 8.125133570564012, 51.572456655598181 ], [ 8.124123625788874, 51.572449122574717 ], [ 8.1231136814532, 51.572441580861607 ], [ 8.122103737557493, 51.572434030458872 ], [ 8.12209161371649, 51.573063369601115 ], [ 8.121081656318207, 51.573055810339312 ], [ 8.120071699360928, 51.573048242387692 ], [ 8.12005954719233, 51.573677581120933 ], [ 8.120047394582201, 51.574306919784256 ], [ 8.120035241530521, 51.574936258377654 ] ] ], [ [ [ 8.129834124904239, 51.537872875413782 ], [ 8.130843305771091, 51.537880355762375 ], [ 8.130855293659387, 51.537251011358165 ], [ 8.131864461046591, 51.537258482860331 ], [ 8.131876434585218, 51.5366291382188 ], [ 8.132885588492734, 51.536636600874921 ], [ 8.132897547682701, 51.536007255996282 ], [ 8.132909506438468, 51.53537791104776 ], [ 8.132921464760054, 51.534748566029357 ], [ 8.131912352592821, 51.5347411038749 ], [ 8.131924324392664, 51.534111758953848 ], [ 8.130915226572492, 51.534104288288766 ], [ 8.130903240860251, 51.534733633042421 ], [ 8.130891254712841, 51.535362977726187 ], [ 8.129882129502562, 51.535355498048077 ], [ 8.129870129006576, 51.535984842494344 ], [ 8.129858128074876, 51.536614186870722 ], [ 8.129846126707434, 51.537243531177204 ], [ 8.129834124904239, 51.537872875413782 ] ] ], [ [ [ 8.131531398185073, 51.607752122118463 ], [ 8.130520668744554, 51.607744640535913 ], [ 8.129509939741125, 51.607737150252767 ], [ 8.128499211175297, 51.607729651268997 ], [ 8.128487160434622, 51.608358987678997 ], [ 8.129497902972068, 51.60836648683091 ], [ 8.129485865765389, 51.6089958233392 ], [ 8.130496622712606, 51.609003313958247 ], [ 8.130508645947137, 51.608373977282 ], [ 8.131519389359315, 51.608381459032302 ], [ 8.131531398185073, 51.607752122118463 ] ] ], [ [ [ 8.138050241310543, 51.530380323713743 ], [ 8.137041224354606, 51.530372906113165 ], [ 8.137029324709459, 51.53100225228755 ], [ 8.137017424632297, 51.531631598392067 ], [ 8.137005524123101, 51.532260944426717 ], [ 8.136993623181844, 51.532890290391506 ], [ 8.136981721808512, 51.533519636286442 ], [ 8.137990808316957, 51.533527054718135 ], [ 8.138999895256994, 51.533534464472147 ], [ 8.139011768807284, 51.532905118244933 ], [ 8.139023641926505, 51.532275771947887 ], [ 8.139035514614678, 51.531646425580981 ], [ 8.14004456025266, 51.531653826159754 ], [ 8.140056418599769, 51.531024479557153 ], [ 8.141065450758214, 51.53103187129318 ], [ 8.142074483346656, 51.531039254352258 ], [ 8.142086313444137, 51.530409907348734 ], [ 8.143095332552475, 51.530417281565619 ], [ 8.143107148311394, 51.529787934327025 ], [ 8.143118963641367, 51.529158587018593 ], [ 8.143130778542417, 51.528529239640307 ], [ 8.143142593014559, 51.527899892192195 ], [ 8.14415155691845, 51.527907257072165 ], [ 8.145160521250716, 51.527914613276138 ], [ 8.146169486010857, 51.527921960804115 ], [ 8.14717845119837, 51.527929299656073 ], [ 8.148187416812744, 51.527936629832006 ], [ 8.14819916132034, 51.52730728149087 ], [ 8.148210905401596, 51.52667793307991 ], [ 8.149219843628448, 51.526685254251724 ], [ 8.150228782281113, 51.526692566747876 ], [ 8.15024049812366, 51.526063217939203 ], [ 8.149231573377199, 51.526055905606896 ], [ 8.149243302700155, 51.52542655689227 ], [ 8.14925503159734, 51.52479720810782 ], [ 8.14926676006877, 51.524167859253566 ], [ 8.148257877463632, 51.524160538737917 ], [ 8.14724899528473, 51.524153209547386 ], [ 8.146240113532572, 51.52414587168203 ], [ 8.14523123220766, 51.524138525141815 ], [ 8.145219448117667, 51.524767873338789 ], [ 8.144210553315915, 51.524760517958917 ], [ 8.143201658942441, 51.52475315390403 ], [ 8.143189846614508, 51.525382501701344 ], [ 8.143178033857774, 51.526011849428812 ], [ 8.143166220672219, 51.526641197086455 ], [ 8.142157285010853, 51.526633823860934 ], [ 8.141148349778835, 51.52662644195982 ], [ 8.141136508351325, 51.52725578921698 ], [ 8.140127559642631, 51.527248398474697 ], [ 8.140115703878218, 51.527877745496397 ], [ 8.139106741692892, 51.52787034591254 ], [ 8.139094871590567, 51.528499692698581 ], [ 8.139083001057317, 51.529129039414777 ], [ 8.138074011487403, 51.529121630822949 ], [ 8.138062126614708, 51.529750977303273 ], [ 8.138050241310543, 51.530380323713743 ] ] ], [ [ [ 8.134211136709784, 51.573153402934409 ], [ 8.135221099795022, 51.573160849227875 ], [ 8.13623106331417, 51.573168286831418 ], [ 8.136219134244714, 51.573797628255555 ], [ 8.137229112141146, 51.573805057335683 ], [ 8.138239090470497, 51.57381247772566 ], [ 8.139249069232262, 51.573819889425472 ], [ 8.139260956470036, 51.573190547502342 ], [ 8.13927284327592, 51.572561205509373 ], [ 8.138262892401478, 51.572553794141818 ], [ 8.138274792718402, 51.571924452245149 ], [ 8.137264856219215, 51.571917032354143 ], [ 8.137252941959412, 51.572546374084496 ], [ 8.136242991950223, 51.572538945337413 ], [ 8.135233042374418, 51.572531507900592 ], [ 8.134223093232507, 51.57252406177404 ], [ 8.133213144524996, 51.572516606957741 ], [ 8.133201174058966, 51.573145947951005 ], [ 8.134211136709784, 51.573153402934409 ] ] ], [ [ [ 8.138203384330861, 51.575700502577618 ], [ 8.138191481419391, 51.576329844055266 ], [ 8.138179578075421, 51.576959185463075 ], [ 8.138167674298934, 51.577588526801044 ], [ 8.138155770089909, 51.578217868069181 ], [ 8.138143865448322, 51.578847209267472 ], [ 8.138131960374158, 51.579476550395931 ], [ 8.137121856526958, 51.579469128508762 ], [ 8.136111753112866, 51.579461697929709 ], [ 8.136099819708198, 51.580091038655382 ], [ 8.13710993707123, 51.580098469401022 ], [ 8.137098017182373, 51.580727810223429 ], [ 8.137086096860367, 51.581357150975997 ], [ 8.137074176105189, 51.581986491658718 ], [ 8.137062254916822, 51.582615832271593 ], [ 8.137050333295241, 51.583245172814664 ], [ 8.138060520843805, 51.583252595700159 ], [ 8.139070708825097, 51.58326000989257 ], [ 8.139082602543667, 51.582630669016908 ], [ 8.139094495830038, 51.582001328071435 ], [ 8.139106388684233, 51.581371987056116 ], [ 8.139118281106271, 51.580742645970972 ], [ 8.139130173096172, 51.580113304815995 ], [ 8.139142064653958, 51.579483963591187 ], [ 8.140152169365855, 51.579491368094523 ], [ 8.140164046543051, 51.578862026633907 ], [ 8.140175923288679, 51.578232685103458 ], [ 8.140187799602762, 51.577603343503192 ], [ 8.141197862902215, 51.577610738817256 ], [ 8.141209724837775, 51.576981396981381 ], [ 8.140199675485317, 51.576974001833086 ], [ 8.140211550936368, 51.576344660093149 ], [ 8.140223425955936, 51.575715318283386 ], [ 8.140235300544038, 51.575085976403805 ], [ 8.139225293460971, 51.57507857306225 ], [ 8.139213404927412, 51.575707914775876 ], [ 8.138203384330861, 51.575700502577618 ] ] ], [ [ [ 8.163264266138992, 51.531192294204288 ], [ 8.163252727728407, 51.531821644567337 ], [ 8.164261783559571, 51.531828836892714 ], [ 8.164250258641109, 51.532458187347189 ], [ 8.165259328801728, 51.532465371156214 ], [ 8.166268399380268, 51.532472546287693 ], [ 8.167277470376224, 51.53247971274164 ], [ 8.16828654178909, 51.532486870518028 ], [ 8.168275072098551, 51.533116221545512 ], [ 8.168263601991585, 51.533745572503285 ], [ 8.168252131468174, 51.534374923391312 ], [ 8.168240660528298, 51.535004274209626 ], [ 8.169249788007146, 51.535011423949285 ], [ 8.170258915901977, 51.53501856501061 ], [ 8.17126804421228, 51.535025697393586 ], [ 8.171279473412641, 51.534396346095221 ], [ 8.171290902198052, 51.533766994727131 ], [ 8.172300003097408, 51.53377411811249 ], [ 8.172311417555688, 51.533144766515058 ], [ 8.172322831599562, 51.532515414847929 ], [ 8.172334245229047, 51.531886063111102 ], [ 8.171325186064781, 51.531878940204606 ], [ 8.170316127315385, 51.531871808620728 ], [ 8.169307068981364, 51.531864668359454 ], [ 8.169318523928485, 51.531235317032333 ], [ 8.168309479920973, 51.531228168253882 ], [ 8.168320948362355, 51.530598817017228 ], [ 8.16731191868131, 51.530591659722006 ], [ 8.166302889417118, 51.530584493749807 ], [ 8.166314385261328, 51.529955142764365 ], [ 8.165305370324047, 51.529947968275977 ], [ 8.165316879659976, 51.529318617381563 ], [ 8.164307879049568, 51.529311434377369 ], [ 8.163298878857484, 51.529304242696639 ], [ 8.163287341703509, 51.529933593268936 ], [ 8.163275804130684, 51.530562943771493 ], [ 8.1642848321413, 51.530570135774539 ], [ 8.164273308059627, 51.5311994863685 ], [ 8.163264266138992, 51.531192294204288 ] ] ] ] } },
{ "type": "Feature", "properties": { "spot": "hotspot" }, "geometry": { "type": "MultiPolygon", "coordinates": [ [ [ [ 8.055826509581022, 51.553665962296371 ], [ 8.056836019232199, 51.553674080916267 ], [ 8.056849035134798, 51.553044751085864 ], [ 8.055839539410071, 51.553036632647931 ], [ 8.055852568765905, 51.552407302929232 ], [ 8.054843087440309, 51.552399175990253 ], [ 8.054830044158555, 51.553028505526811 ], [ 8.053820549380756, 51.553020369722525 ], [ 8.053807491698883, 51.553649699006485 ], [ 8.054817000403082, 51.55365783499311 ], [ 8.054803956173869, 51.554287164389173 ], [ 8.055813479278742, 51.554295291874581 ], [ 8.055826509581022, 51.553665962296371 ] ] ], [ [ [ 8.081000976301411, 51.557012992398406 ], [ 8.079991385801771, 51.557005081295898 ], [ 8.079978687446753, 51.557634414836699 ], [ 8.079965988630502, 51.558263748307397 ], [ 8.079953289352995, 51.55889308170795 ], [ 8.079940589614212, 51.559522415038401 ], [ 8.078930943852756, 51.559514494541268 ], [ 8.078918229720653, 51.560143827624081 ], [ 8.078905515126722, 51.560773160636757 ], [ 8.077895841962567, 51.560765231098848 ], [ 8.077883112973776, 51.561394563863686 ], [ 8.078892800070941, 51.561402493579315 ], [ 8.078880084553289, 51.562031826451758 ], [ 8.078867368573743, 51.56266115925407 ], [ 8.079877084000362, 51.562669080638848 ], [ 8.080886799888392, 51.562676993337313 ], [ 8.080874111316053, 51.56330632642441 ], [ 8.081883841599581, 51.563314230613685 ], [ 8.082893572343529, 51.563322126116432 ], [ 8.083903303547391, 51.563330012932639 ], [ 8.084913035210661, 51.563337891062275 ], [ 8.084925668044489, 51.562708557267712 ], [ 8.085935386231981, 51.562716426534415 ], [ 8.085948004672749, 51.562087092493393 ], [ 8.086957709384414, 51.562094952897532 ], [ 8.086970313433142, 51.561465618610235 ], [ 8.086982917024041, 51.560836284252865 ], [ 8.087992594326629, 51.560844135618858 ], [ 8.088005183527024, 51.560214801015434 ], [ 8.088017772270144, 51.559585466341936 ], [ 8.088030360556013, 51.558956131598343 ], [ 8.088042948384649, 51.558326796784684 ], [ 8.088055535756078, 51.557697461900943 ], [ 8.08806812267032, 51.557068126947129 ], [ 8.088080709127398, 51.55643879192322 ], [ 8.088093295127333, 51.555809456829238 ], [ 8.087083729272209, 51.555801606870887 ], [ 8.087096328743678, 51.555172271882753 ], [ 8.086086777274815, 51.555164413416286 ], [ 8.08507722626406, 51.555156546265756 ], [ 8.084067675711925, 51.555148670431201 ], [ 8.083058125618908, 51.55514078591262 ], [ 8.083045470433031, 51.555770120195064 ], [ 8.082035906871095, 51.555762226815567 ], [ 8.082023237296516, 51.556391560851004 ], [ 8.081013660265704, 51.556383658610194 ], [ 8.081000976301411, 51.557012992398406 ] ] ], [ [ [ 8.088939388895865, 51.563998651143926 ], [ 8.088926810887124, 51.564627985502682 ], [ 8.087917049520264, 51.564620141767755 ], [ 8.086907288610833, 51.564612289345838 ], [ 8.086894682272655, 51.565241623282716 ], [ 8.085884907884937, 51.565233761997625 ], [ 8.085872287152075, 51.565863095688229 ], [ 8.086882075476524, 51.565870957149507 ], [ 8.086869468222414, 51.566500290946223 ], [ 8.087879270942098, 51.566508143896165 ], [ 8.088889074119276, 51.566515988158535 ], [ 8.089898877753443, 51.566523823733327 ], [ 8.089886311854688, 51.567153157987427 ], [ 8.090896129883166, 51.567160985050073 ], [ 8.091905948367639, 51.567168803424934 ], [ 8.092915767307607, 51.567176613111997 ], [ 8.093925586702557, 51.567184414111253 ], [ 8.093938096849865, 51.566555079156586 ], [ 8.093950606542716, 51.565925744131867 ], [ 8.093963115781129, 51.565296409037089 ], [ 8.094972893818328, 51.565304200824571 ], [ 8.094985388665933, 51.564674865485102 ], [ 8.093975624565131, 51.564667073872265 ], [ 8.09398813289474, 51.564037738637388 ], [ 8.092978383184199, 51.564029938512355 ], [ 8.092990904994805, 51.563400603382263 ], [ 8.091981169674483, 51.563392794745411 ], [ 8.090971434809523, 51.563384977421919 ], [ 8.090983984034922, 51.562755642572014 ], [ 8.089974263560622, 51.562747816737307 ], [ 8.089961700400428, 51.563377151411814 ], [ 8.089949136783865, 51.56400648601624 ], [ 8.088939388895865, 51.563998651143926 ] ] ], [ [ [ 8.095782916053109, 51.575381342622272 ], [ 8.095795404221329, 51.574752008228955 ], [ 8.096805392273208, 51.574759785256312 ], [ 8.097815380778307, 51.574767553593489 ], [ 8.097827840604705, 51.57413821878167 ], [ 8.096817866043661, 51.574130450618632 ], [ 8.096830339360917, 51.573501115910922 ], [ 8.096842812224994, 51.572871781133173 ], [ 8.096855284635915, 51.572242446285394 ], [ 8.09584535235714, 51.572234669955307 ], [ 8.095832866003702, 51.572864004628777 ], [ 8.095820379196605, 51.573493339232208 ], [ 8.094810419485974, 51.573485553863712 ], [ 8.094797918281683, 51.574114888222589 ], [ 8.094785416623177, 51.574744222511427 ], [ 8.094772914510438, 51.57537355673022 ], [ 8.095782916053109, 51.575381342622272 ] ] ], [ [ [ 8.102852939528441, 51.575435600535897 ], [ 8.102840548522268, 51.576064936075426 ], [ 8.102828157065868, 51.576694271544987 ], [ 8.102815765159223, 51.577323606944518 ], [ 8.101805718613882, 51.577315881365699 ], [ 8.101793312310267, 51.577945216522053 ], [ 8.100783252269029, 51.577937482078866 ], [ 8.100770831567431, 51.578566816991831 ], [ 8.10075841041451, 51.579196151834786 ], [ 8.100745988810242, 51.579825486607746 ], [ 8.100733566754604, 51.580454821310695 ], [ 8.100721144247576, 51.581084155943628 ], [ 8.101731274029797, 51.581091891253777 ], [ 8.102741404262927, 51.581099617871736 ], [ 8.103751534946456, 51.581107335797526 ], [ 8.103763915605789, 51.58047800064498 ], [ 8.104774032789937, 51.580485709705762 ], [ 8.104786399050631, 51.579856374310395 ], [ 8.105796502735352, 51.57986407450656 ], [ 8.10680660686891, 51.579871766010903 ], [ 8.106818944783674, 51.579242430200537 ], [ 8.106831282250132, 51.57861309432019 ], [ 8.106843619268304, 51.577983758369861 ], [ 8.106855955838212, 51.577354422349558 ], [ 8.107866004629832, 51.577362104473217 ], [ 8.107878326805196, 51.576732768210725 ], [ 8.107890648532845, 51.576103431878252 ], [ 8.1079029698128, 51.575474095475812 ], [ 8.107915290645083, 51.57484475900339 ], [ 8.108925284102195, 51.574852431747992 ], [ 8.109935278006452, 51.5748600958023 ], [ 8.110945272357347, 51.574867751166323 ], [ 8.111955267154372, 51.574875397840032 ], [ 8.111943002101423, 51.575504734999257 ], [ 8.112953011288962, 51.575512373153863 ], [ 8.112965262397022, 51.574883035823433 ], [ 8.112977513059965, 51.57425369842305 ], [ 8.113987494803332, 51.574261327545109 ], [ 8.113999731077282, 51.573631989903738 ], [ 8.112989763277811, 51.573624360952692 ], [ 8.113002013050581, 51.572995023412403 ], [ 8.113014262378297, 51.57236568580214 ], [ 8.112004322910131, 51.572358048503553 ], [ 8.112016585735169, 51.571728710994527 ], [ 8.11302651126098, 51.571736348121931 ], [ 8.113038759698652, 51.571107010371762 ], [ 8.11202884811469, 51.571099373415556 ], [ 8.111018936976224, 51.571091727770188 ], [ 8.111031212851572, 51.570462390292619 ], [ 8.112041110048715, 51.570470035766618 ], [ 8.113051007691332, 51.57047767255164 ], [ 8.113063255239046, 51.569848334661572 ], [ 8.112053371537264, 51.569840698047713 ], [ 8.111043488280934, 51.569833052745082 ], [ 8.111055763264339, 51.5692037151276 ], [ 8.110045894394258, 51.5691960613078 ], [ 8.109036025970621, 51.569188398799447 ], [ 8.109048328387626, 51.568559061455289 ], [ 8.108038474350678, 51.568551390430358 ], [ 8.108026157993933, 51.569180727602571 ], [ 8.107016290464705, 51.569173047717157 ], [ 8.107028620761167, 51.56854371071708 ], [ 8.106018767619595, 51.568536022315492 ], [ 8.106006423383439, 51.569165359143227 ], [ 8.104996556750644, 51.569157661880787 ], [ 8.103986690566824, 51.569149955929852 ], [ 8.10397431800186, 51.569779292342332 ], [ 8.103961944987393, 51.570408628684824 ], [ 8.103949571523401, 51.571037964957306 ], [ 8.103937197609861, 51.571667301159799 ], [ 8.103924823246754, 51.572296637292276 ], [ 8.103912448434055, 51.572925973354771 ], [ 8.103900073171745, 51.57355530934727 ], [ 8.1038876974598, 51.574184645269774 ], [ 8.103875321298204, 51.574813981122269 ], [ 8.102865330084409, 51.574806264926366 ], [ 8.102852939528441, 51.575435600535897 ] ] ], [ [ [ 8.120314650044103, 51.560461453038876 ], [ 8.120302506701664, 51.5610907931706 ], [ 8.120290362918121, 51.561720133232399 ], [ 8.121300068978288, 51.561727698131264 ], [ 8.121287938688042, 51.562357038292717 ], [ 8.12027821869345, 51.562349473224288 ], [ 8.120266074027629, 51.562978813146238 ], [ 8.119256340539275, 51.562971239221568 ], [ 8.119244181496866, 51.563600578903831 ], [ 8.11923202201276, 51.564229918516155 ], [ 8.118222261094783, 51.564222335564885 ], [ 8.118210087232551, 51.564851674937309 ], [ 8.118197912928071, 51.565481014239822 ], [ 8.118185738181324, 51.566110353472396 ], [ 8.119195540910043, 51.566117936933573 ], [ 8.119183379658935, 51.566747276266192 ], [ 8.11817356299229, 51.566739692635025 ], [ 8.118161387360944, 51.567369031727722 ], [ 8.118149211287269, 51.567998370750487 ], [ 8.117139367185603, 51.567990778091129 ], [ 8.11712717673015, 51.568620116873774 ], [ 8.117114985831819, 51.56924945558648 ], [ 8.117102794490586, 51.569878794229261 ], [ 8.118112680412043, 51.569886387399194 ], [ 8.118100502568831, 51.570515726142226 ], [ 8.118088324283182, 51.57114506481534 ], [ 8.119098238529489, 51.571152649636488 ], [ 8.120108153217748, 51.571160225768431 ], [ 8.120120303620434, 51.570530886755499 ], [ 8.120132453581697, 51.569901547672636 ], [ 8.121142340828882, 51.569909114776117 ], [ 8.121154476408242, 51.56927977545373 ], [ 8.121166611546725, 51.568650436061411 ], [ 8.122176471354271, 51.568657994137226 ], [ 8.122188592112391, 51.568028654505575 ], [ 8.123198438420754, 51.568036203723722 ], [ 8.123210544799523, 51.567406863852959 ], [ 8.124220377608664, 51.567414404213821 ], [ 8.125230210857097, 51.567421935886578 ], [ 8.126240044544319, 51.56742945887126 ], [ 8.126227979982749, 51.568058799248483 ], [ 8.126215914982875, 51.56868813955581 ], [ 8.12620384954468, 51.569317479793256 ], [ 8.126191783668137, 51.569946819960791 ], [ 8.126179717353232, 51.570576160058451 ], [ 8.126167650599937, 51.571205500086187 ], [ 8.127177568367681, 51.571213015393425 ], [ 8.127165515118126, 51.571842355519735 ], [ 8.12817544726594, 51.571849862305946 ], [ 8.129185379851169, 51.571857360402682 ], [ 8.130195312873308, 51.571864849809934 ], [ 8.131205246331852, 51.571872330527675 ], [ 8.131217243812614, 51.571242989729477 ], [ 8.132227163764801, 51.571250461590225 ], [ 8.132239146867944, 51.570621120554662 ], [ 8.132251129535739, 51.569991779449239 ], [ 8.132263111768204, 51.569362438273956 ], [ 8.132275093565363, 51.568733097028797 ], [ 8.132287074927236, 51.568103755713764 ], [ 8.132299055853844, 51.567474414328863 ], [ 8.132311036345207, 51.566845072874109 ], [ 8.132323016401347, 51.566215731349473 ], [ 8.13333282526896, 51.566223193182736 ], [ 8.133344790952183, 51.565593851420978 ], [ 8.134354586316755, 51.565601304399422 ], [ 8.135364382115498, 51.565608748690259 ], [ 8.135376319489565, 51.564979406524742 ], [ 8.136386101784698, 51.564986841961328 ], [ 8.136398024788356, 51.5643574995593 ], [ 8.13740779357984, 51.564364926142019 ], [ 8.137419702214103, 51.563735583503664 ], [ 8.137431610415778, 51.563106240795484 ], [ 8.137443518184885, 51.562476898017451 ], [ 8.138453245601593, 51.56248431541416 ], [ 8.138465139003371, 51.56185497240002 ], [ 8.139474852917315, 51.561862380944042 ], [ 8.140484567262774, 51.561869780801587 ], [ 8.140496432363916, 51.561240437385713 ], [ 8.141506133206045, 51.561247828391124 ], [ 8.142515834478653, 51.561255210710257 ], [ 8.14352553618124, 51.561262584343098 ], [ 8.144535238313296, 51.561269949289631 ], [ 8.144523428949633, 51.561899293366984 ], [ 8.144511619156987, 51.562528637374534 ], [ 8.145521349587355, 51.562535993964524 ], [ 8.146531080446222, 51.562543341867809 ], [ 8.146542862368992, 51.561913997530674 ], [ 8.146554643863791, 51.561284653123757 ], [ 8.146566424930638, 51.560655308647029 ], [ 8.146578205569552, 51.56002596410049 ], [ 8.146589985780556, 51.55939661948414 ], [ 8.146601765563672, 51.558767274797987 ], [ 8.14761141324831, 51.558774613027637 ], [ 8.148621061360309, 51.55878194257172 ], [ 8.14863281285167, 51.558152597487016 ], [ 8.149642447458554, 51.558159918181445 ], [ 8.149654184591608, 51.557530572862866 ], [ 8.14966592129835, 51.556901227474491 ], [ 8.150675528469097, 51.556908539155792 ], [ 8.151685136065625, 51.556915842152087 ], [ 8.152694744087434, 51.556923136463382 ], [ 8.153704352534014, 51.556930422089657 ], [ 8.153716033092438, 51.556301075977153 ], [ 8.154725628032729, 51.556308352755309 ], [ 8.154737294236853, 51.555679006409953 ], [ 8.155746875670811, 51.555686274340353 ], [ 8.156756457527983, 51.555693533586123 ], [ 8.156768095449232, 51.555064186845385 ], [ 8.157777663799505, 51.555071437243988 ], [ 8.157789287368963, 51.554442090271003 ], [ 8.157800910516258, 51.553812743228256 ], [ 8.156791370023681, 51.553805493154655 ], [ 8.156803006676924, 51.553176146204621 ], [ 8.156814642907539, 51.552546799184839 ], [ 8.155805130693247, 51.552539540752512 ], [ 8.155816780428312, 51.551910193825634 ], [ 8.155828429740286, 51.551280846828995 ], [ 8.154818945802678, 51.551273580038718 ], [ 8.153809462288649, 51.551266304565154 ], [ 8.152799979198702, 51.551259020408317 ], [ 8.151790496533346, 51.551251727568207 ], [ 8.151778791515364, 51.551881073912242 ], [ 8.150769295348651, 51.551873772225242 ], [ 8.150757575978595, 51.552503118335828 ], [ 8.149748066310567, 51.552495807801542 ], [ 8.149736332587427, 51.553125153678494 ], [ 8.148726809418125, 51.553117834296536 ], [ 8.148715061340889, 51.553747179939663 ], [ 8.147705524670354, 51.553739851709643 ], [ 8.147717286675496, 51.553110506230773 ], [ 8.146707764360045, 51.553103169481176 ], [ 8.145698242472278, 51.553095824047801 ], [ 8.145710031904983, 51.55246647882818 ], [ 8.145721820909518, 51.551837133538733 ], [ 8.144712327304116, 51.551829779751195 ], [ 8.14472412980683, 51.551200434556748 ], [ 8.144735931880911, 51.550571089292475 ], [ 8.144747733526376, 51.549941743958385 ], [ 8.143738282127037, 51.549934381982446 ], [ 8.142728831156798, 51.549927011323717 ], [ 8.141719380616163, 51.549919631982185 ], [ 8.140709930505636, 51.54991224395787 ], [ 8.140698073159106, 51.550541588630814 ], [ 8.139688609553982, 51.550534191757954 ], [ 8.139676737851095, 51.551163536195283 ], [ 8.139664865717048, 51.551792880562779 ], [ 8.139652993151815, 51.552422224860408 ], [ 8.138643488199218, 51.55241481880666 ], [ 8.138631601275568, 51.553044162868474 ], [ 8.138619713920185, 51.553673506860441 ], [ 8.1376101815444, 51.553666091790795 ], [ 8.137598279829062, 51.55429543554672 ], [ 8.136588733957348, 51.554288011626767 ], [ 8.136576817881039, 51.554917355146451 ], [ 8.136564901371928, 51.555546698596288 ], [ 8.135555328075148, 51.555539265659064 ], [ 8.135543397203531, 51.556168608872447 ], [ 8.135531465898563, 51.556797952015977 ], [ 8.134521865175284, 51.556790510060694 ], [ 8.133512264885884, 51.556783059420546 ], [ 8.132502665030866, 51.556775600095541 ], [ 8.131493065610737, 51.556768132085693 ], [ 8.130483466626004, 51.55676065539101 ], [ 8.130471465234507, 51.557389997628732 ], [ 8.130459463407087, 51.558019339796601 ], [ 8.129449836996612, 51.558011854081549 ], [ 8.129437820801668, 51.558641196011756 ], [ 8.12842818089608, 51.558633701443505 ], [ 8.128416150332603, 51.559263043135843 ], [ 8.127406496931947, 51.559255539714044 ], [ 8.12741854142747, 51.558626198189877 ], [ 8.126408902396339, 51.55861868625086 ], [ 8.126396843968793, 51.55924802760665 ], [ 8.125387191443647, 51.559240506813694 ], [ 8.124377539357015, 51.559232977335178 ], [ 8.123367887709401, 51.559225439171094 ], [ 8.123355787046387, 51.559854779950719 ], [ 8.122346121905855, 51.559847232931943 ], [ 8.121336457205375, 51.559839677227444 ], [ 8.121324328236932, 51.560469017598649 ], [ 8.120314650044103, 51.560461453038876 ] ], [ [ 8.143655564119472, 51.554339796699793 ], [ 8.143667382265258, 51.553710451949655 ], [ 8.144676917223963, 51.553717814915622 ], [ 8.144665113006507, 51.554347159830783 ], [ 8.144653308360311, 51.554976504676134 ], [ 8.144641503285358, 51.555605849451666 ], [ 8.143631926540145, 51.555598485990622 ], [ 8.143643745544439, 51.55496914138012 ], [ 8.142634183157833, 51.554961769399746 ], [ 8.142646015661679, 51.554332424884628 ], [ 8.143655564119472, 51.554339796699793 ] ] ], [ [ [ 8.111709881398246, 51.587462127732721 ], [ 8.111697607428308, 51.588091463492823 ], [ 8.112707895619989, 51.588099105072693 ], [ 8.112720155634905, 51.587469769141279 ], [ 8.112732415204274, 51.586840433139926 ], [ 8.111722154922131, 51.586832791902658 ], [ 8.111709881398246, 51.587462127732721 ] ] ] ] } }
]
}
