{
"type": "FeatureCollection",
"name": "2024_Soest_70m_gistar_urbanOnly_hotcold_dissolved_4326",
"crs": { "type": "name", "properties": { "name": "urn:ogc:def:crs:OGC:1.3:CRS84" } },
"features": [
{ "type": "Feature", "properties": { "spot": "coldspot" }, "geometry": { "type": "MultiPolygon", "coordinates": [ [ [ [ 8.038159737448462, 51.529603891922299 ], [ 8.039168709669898, 51.529612159797978 ], [ 8.039181957952662, 51.528982830599901 ], [ 8.039195205754497, 51.528353501331509 ], [ 8.038186261346237, 51.528345233826329 ], [ 8.038172999638066, 51.52897456290949 ], [ 8.038159737448462, 51.529603891922299 ] ] ], [ [ [ 7.987572147853168, 51.535472627816908 ], [ 7.988581234467951, 51.535481331421359 ], [ 7.989590321589159, 51.535490026348519 ], [ 7.989604256337455, 51.53486070716243 ], [ 7.989618190579855, 51.534231387905763 ], [ 7.989632124316382, 51.533602068578496 ], [ 7.989646057547064, 51.532972749180651 ], [ 7.989659990271921, 51.532343429712228 ], [ 7.98865097269931, 51.532334735759171 ], [ 7.987641955633005, 51.532326033129806 ], [ 7.986632939073507, 51.532317321824145 ], [ 7.986646913017108, 51.531688002870119 ], [ 7.985637910873056, 51.531679283083584 ], [ 7.985623923021322, 51.532308601842217 ], [ 7.98560993466177, 51.532937920530244 ], [ 7.985595945794375, 51.533567239147651 ], [ 7.985581956419115, 51.534196557694465 ], [ 7.985567966535964, 51.534825876170665 ], [ 7.986577038225726, 51.534834596934203 ], [ 7.986563061745315, 51.53546391553521 ], [ 7.987572147853168, 51.535472627816908 ] ] ], [ [ [ 8.045117217143838, 51.534696224772652 ], [ 8.044108130770248, 51.534688007479161 ], [ 8.044094947715353, 51.535317336967836 ], [ 8.044081764181826, 51.535946666386202 ], [ 8.044068580169638, 51.53657599573426 ], [ 8.04405539567877, 51.537205325012017 ], [ 8.04506453770148, 51.537213543042071 ], [ 8.04607368020239, 51.537221752393918 ], [ 8.047082823180995, 51.537229953067538 ], [ 8.04709596593268, 51.536600623237916 ], [ 8.048105095475368, 51.536608815049732 ], [ 8.048118223837289, 51.535979484966255 ], [ 8.049127339944013, 51.535987667916643 ], [ 8.050136456526872, 51.535995842189187 ], [ 8.050149556587892, 51.535366511668876 ], [ 8.050162656173306, 51.53473718107832 ], [ 8.049153567414224, 51.53472900717211 ], [ 8.049166680435187, 51.534099676694424 ], [ 8.048157606063306, 51.534091494294103 ], [ 8.047148532167993, 51.534083303216505 ], [ 8.046139458749757, 51.534075103461653 ], [ 8.045130385809101, 51.534066895029547 ], [ 8.045117217143838, 51.534696224772652 ] ] ], [ [ [ 8.021881373839433, 51.535763682356929 ], [ 8.021867883757382, 51.536393007604595 ], [ 8.020858766785119, 51.536384590166875 ], [ 8.020845262300774, 51.537013915155491 ], [ 8.019836131906326, 51.537005488851165 ], [ 8.019822613018681, 51.537634813580546 ], [ 8.018813469202094, 51.537626378409229 ], [ 8.018799935910135, 51.538255702879162 ], [ 8.018786402126803, 51.538885027278653 ], [ 8.018772867852073, 51.539514351607707 ], [ 8.019782053410571, 51.539522787346087 ], [ 8.020791239459989, 51.539531214405734 ], [ 8.020804745905744, 51.538901889698806 ], [ 8.02081825186111, 51.538272564921456 ], [ 8.021827410572397, 51.538280982925059 ], [ 8.021840902123888, 51.537651657888652 ], [ 8.022850047411497, 51.537660067025428 ], [ 8.022863524560119, 51.537030741730177 ], [ 8.023872656424006, 51.537039142000523 ], [ 8.02388611917077, 51.536409816446614 ], [ 8.023899581428752, 51.535780490822305 ], [ 8.024908685956801, 51.53578888203856 ], [ 8.024922133814465, 51.535159556155804 ], [ 8.023913043197982, 51.535151165127594 ], [ 8.023926504478478, 51.534521839362455 ], [ 8.022917428261763, 51.534513439845014 ], [ 8.022903953070234, 51.535142765421924 ], [ 8.022890477389462, 51.535772090928411 ], [ 8.021881373839433, 51.535763682356929 ] ] ], [ [ [ 8.028904929395441, 51.537710339603649 ], [ 8.027895781179417, 51.537701982536191 ], [ 8.026886633450202, 51.537693616790492 ], [ 8.026873211466629, 51.538322942767152 ], [ 8.026859788995722, 51.538952268673413 ], [ 8.025850613926051, 51.538943893874141 ], [ 8.025837177053146, 51.539573219522339 ], [ 8.025823739692356, 51.540202545100151 ], [ 8.024814537280809, 51.540194161246539 ], [ 8.024801085516481, 51.540823486566055 ], [ 8.025810301843652, 51.540831870607555 ], [ 8.02681951865876, 51.540840245969854 ], [ 8.02680609423828, 51.54146957159454 ], [ 8.027815325456995, 51.541477938465121 ], [ 8.027828735961295, 51.54084861265293 ], [ 8.028837953750754, 51.540856970656797 ], [ 8.028851349852435, 51.540227644586935 ], [ 8.02886474546772, 51.539598318446679 ], [ 8.028878140596634, 51.53896899223605 ], [ 8.029887317126864, 51.538977340999416 ], [ 8.029900697855224, 51.538348014531316 ], [ 8.0288915352392, 51.538339665955036 ], [ 8.028904929395441, 51.537710339603649 ] ] ], [ [ [ 8.06418669682577, 51.53988536773479 ], [ 8.063177490144694, 51.539877313870562 ], [ 8.063190412160528, 51.539247981408018 ], [ 8.063203333707182, 51.53861864887525 ], [ 8.062194155325734, 51.53861058669321 ], [ 8.062207090317694, 51.537981254270896 ], [ 8.061197926320338, 51.537973183590942 ], [ 8.061210874756586, 51.537343851279275 ], [ 8.060201725143282, 51.537335772101798 ], [ 8.060214687022812, 51.536706439900946 ], [ 8.060227648431741, 51.536077107629879 ], [ 8.059218527115315, 51.536069020136516 ], [ 8.05820940626997, 51.536060923965188 ], [ 8.058196417035317, 51.536690255873609 ], [ 8.058183427329052, 51.537319587711792 ], [ 8.057174279129137, 51.53731148249927 ], [ 8.057161275037398, 51.537940814085587 ], [ 8.057148270473494, 51.538570145601675 ], [ 8.05713526543741, 51.539199477047504 ], [ 8.057122259929114, 51.539828808423117 ], [ 8.057109253948589, 51.540458139728479 ], [ 8.05709624749581, 51.541087470963596 ], [ 8.058105479186333, 51.541095577265956 ], [ 8.058092486178149, 51.541724908612508 ], [ 8.059101732257334, 51.541733006416834 ], [ 8.059088752694752, 51.542362337874614 ], [ 8.060098013162644, 51.542370427180501 ], [ 8.061107274101341, 51.54237850780649 ], [ 8.06211653551034, 51.542386579752552 ], [ 8.063125797389134, 51.542394643018667 ], [ 8.063138721281902, 51.541765310836958 ], [ 8.064147969712476, 51.541773365242641 ], [ 8.064160879218974, 51.541144032810223 ], [ 8.064173788256729, 51.540514700307604 ], [ 8.065183009322519, 51.540522745672959 ], [ 8.065195903975541, 51.539893412919838 ], [ 8.06418669682577, 51.53988536773479 ] ] ], [ [ [ 8.046780408141576, 51.551704519749293 ], [ 8.047789871738226, 51.551712715968144 ], [ 8.047803011546337, 51.55108338757146 ], [ 8.047816150877258, 51.550454059104474 ], [ 8.047829289731016, 51.549824730567209 ], [ 8.046819867907027, 51.549816534899414 ], [ 8.045810446560687, 51.549808330549475 ], [ 8.044801025692498, 51.549800117517435 ], [ 8.044787845067665, 51.550429445503084 ], [ 8.044774663964148, 51.551058773418447 ], [ 8.044761482381929, 51.551688101263501 ], [ 8.045770945022642, 51.551696314847753 ], [ 8.046780408141576, 51.551704519749293 ] ] ], [ [ [ 8.003387684573864, 51.550714548495918 ], [ 8.003373932099811, 51.551343868626482 ], [ 8.004383374698214, 51.551352438192957 ], [ 8.004397113248549, 51.550723117870334 ], [ 8.004410851299964, 51.550093797477203 ], [ 8.003401436548492, 51.550085228294833 ], [ 8.003387684573864, 51.550714548495918 ] ] ], [ [ [ 8.010221493168054, 51.561472807212745 ], [ 8.010235156113046, 51.560843486869402 ], [ 8.011244811112407, 51.560851998520512 ], [ 8.01125845962966, 51.560222677915952 ], [ 8.010248818561767, 51.560214166455594 ], [ 8.00923917799012, 51.560205646310166 ], [ 8.009225501609953, 51.560834966533015 ], [ 8.009211824733008, 51.561464286685393 ], [ 8.010221493168054, 51.561472807212745 ] ] ], [ [ [ 8.058673157716647, 51.562500907444416 ], [ 8.058686152372395, 51.56187157823382 ], [ 8.05869914655613, 51.561242248952993 ], [ 8.057689468802639, 51.561234145520785 ], [ 8.056679791521644, 51.561226033402846 ], [ 8.056666769471796, 51.561855362320237 ], [ 8.056653746948923, 51.562484691167384 ], [ 8.057663452096515, 51.562492803648965 ], [ 8.058673157716647, 51.562500907444416 ] ] ], [ [ [ 8.013209635033196, 51.563386279004447 ], [ 8.012199923311679, 51.563377783962359 ], [ 8.012186286249388, 51.564007104405214 ], [ 8.013196011904952, 51.56401559963772 ], [ 8.013209635033196, 51.563386279004447 ] ] ], [ [ [ 8.039329681976787, 51.569897353245267 ], [ 8.040339546251186, 51.569905615611404 ], [ 8.040352797482996, 51.569276290543627 ], [ 8.040366048233409, 51.568646965405534 ], [ 8.039356211836971, 51.568638703409789 ], [ 8.03934294714783, 51.569268028362693 ], [ 8.039329681976787, 51.569897353245267 ] ] ], [ [ [ 8.057233903417661, 51.583260622209941 ], [ 8.057220878749215, 51.583889948851379 ], [ 8.058231058412046, 51.583898058825206 ], [ 8.058244069129703, 51.583268732001976 ], [ 8.059254235314528, 51.583276833101444 ], [ 8.059267231609097, 51.582647506026383 ], [ 8.059280227431412, 51.582018178881128 ], [ 8.059293222781493, 51.581388851665658 ], [ 8.058283098446065, 51.58138075111097 ], [ 8.05827008914669, 51.582010078144847 ], [ 8.057259951334705, 51.582001968716405 ], [ 8.056249813995967, 51.581993850595801 ], [ 8.056236776324326, 51.582623177195693 ], [ 8.056223738178909, 51.583252503725362 ], [ 8.057233903417661, 51.583260622209941 ] ] ], [ [ [ 8.06084814075383, 51.554965129463696 ], [ 8.060835179145062, 51.555594459809299 ], [ 8.059825625823354, 51.55558637537947 ], [ 8.05981264981525, 51.556215705473669 ], [ 8.058803083036283, 51.556207612178468 ], [ 8.058790092627833, 51.556836942021064 ], [ 8.059799673335842, 51.556845035497652 ], [ 8.059786696385109, 51.557474365451419 ], [ 8.060796291494016, 51.557482450424843 ], [ 8.060783328002014, 51.55811178048959 ], [ 8.060770364039147, 51.558741110484135 ], [ 8.061779987479603, 51.558749187134978 ], [ 8.061767036976962, 51.55937851724034 ], [ 8.062776674818936, 51.559386585387024 ], [ 8.063786313130809, 51.559394644848503 ], [ 8.063799235771159, 51.558765314381695 ], [ 8.063812157942138, 51.558135983844693 ], [ 8.063825079643772, 51.557506653237489 ], [ 8.06383800087608, 51.556877322560084 ], [ 8.063850921639085, 51.556247991812484 ], [ 8.063863841932809, 51.555618660994696 ], [ 8.063876761757278, 51.554989330106707 ], [ 8.06388968111251, 51.55435999914851 ], [ 8.062880154235737, 51.554351941131934 ], [ 8.06187062782868, 51.554343874431723 ], [ 8.060861101891849, 51.554335799047884 ], [ 8.06084814075383, 51.554965129463696 ] ] ], [ [ [ 8.059630936204696, 51.565026319419722 ], [ 8.058621174373082, 51.565018223584616 ], [ 8.057611413013595, 51.565010119062585 ], [ 8.057598402061343, 51.565639447740431 ], [ 8.057585390636435, 51.566268776348046 ], [ 8.057572378738852, 51.566898104885439 ], [ 8.05858218190817, 51.566906209952457 ], [ 8.059591985549678, 51.566914306331959 ], [ 8.059604969573009, 51.56628497743143 ], [ 8.059617953124674, 51.565655648460691 ], [ 8.059630936204696, 51.565026319419722 ] ] ], [ [ [ 8.071684030945997, 51.568269447173883 ], [ 8.071671212773179, 51.568898778026409 ], [ 8.071658394134682, 51.569528108808775 ], [ 8.072668259623438, 51.569536092965848 ], [ 8.072655454459197, 51.570165423857027 ], [ 8.073665334353134, 51.570173399504462 ], [ 8.074675214711787, 51.570181366463309 ], [ 8.074687991996036, 51.569552035214777 ], [ 8.074700768816101, 51.568922703896121 ], [ 8.075710621759409, 51.568930661809603 ], [ 8.075723384176296, 51.568301330242427 ], [ 8.076733223644222, 51.568309279289501 ], [ 8.076745971658941, 51.567679947474005 ], [ 8.07775579765144, 51.567687887655062 ], [ 8.077768531265004, 51.567058555591487 ], [ 8.077781264415993, 51.566429223457781 ], [ 8.077793997104425, 51.565799891253974 ], [ 8.077806729330327, 51.565170558980014 ], [ 8.076796959086984, 51.565162619510829 ], [ 8.076809704786399, 51.564533287344702 ], [ 8.077819461093716, 51.564541226635939 ], [ 8.077832192394617, 51.563911894221746 ], [ 8.07784492323305, 51.563282561737424 ], [ 8.076835194796264, 51.563274622802076 ], [ 8.076847939106759, 51.562645290425564 ], [ 8.075838225067407, 51.562637342981866 ], [ 8.075825466822426, 51.563266675180238 ], [ 8.074815739312045, 51.563258718871921 ], [ 8.074802966668642, 51.563888050821831 ], [ 8.073793225687279, 51.56388008564852 ], [ 8.073780438644437, 51.564509417349761 ], [ 8.073767651137086, 51.565138748980871 ], [ 8.072757882748848, 51.565130774763432 ], [ 8.072745080840519, 51.565760106145667 ], [ 8.072732278467129, 51.566389437457737 ], [ 8.072719475628652, 51.567018768699647 ], [ 8.072706672325065, 51.56764809987142 ], [ 8.071696848653158, 51.567640116251205 ], [ 8.071684030945997, 51.568269447173883 ] ] ], [ [ [ 8.061300505417041, 51.582034354277148 ], [ 8.060290366188363, 51.58202627092524 ], [ 8.060277384315871, 51.582655598251897 ], [ 8.061287537494392, 51.582663681785021 ], [ 8.061300505417041, 51.582034354277148 ] ] ], [ [ [ 8.102301601352776, 51.552142417704651 ], [ 8.103311090445299, 51.552150136360169 ], [ 8.103298716082309, 51.552779474489917 ], [ 8.104308219550715, 51.552787184635001 ], [ 8.105317723468042, 51.552794886096663 ], [ 8.106327227833784, 51.552802578874875 ], [ 8.10733673264744, 51.552810262969636 ], [ 8.107349051304395, 51.552180924149887 ], [ 8.107361369513965, 51.551551585260142 ], [ 8.107373687276175, 51.550922246300402 ], [ 8.108383150759062, 51.550929921195667 ], [ 8.108395454148885, 51.550300581993937 ], [ 8.109404904153539, 51.550308248034518 ], [ 8.109417193171989, 51.549678908590998 ], [ 8.109429481744151, 51.549049569077503 ], [ 8.108420059588115, 51.549041903380513 ], [ 8.107410637878848, 51.549034229001229 ], [ 8.106401216616858, 51.549026545939668 ], [ 8.10539179580265, 51.549018854195808 ], [ 8.104382375436728, 51.549011153769683 ], [ 8.103372955519598, 51.549003444661302 ], [ 8.102363536051767, 51.548995726870665 ], [ 8.102351150011662, 51.549625065177487 ], [ 8.102338763521733, 51.550254403414307 ], [ 8.102326376581955, 51.55088374158111 ], [ 8.101316915790692, 51.550876014588731 ], [ 8.100307455449805, 51.550868278913526 ], [ 8.100295040209337, 51.55149761666376 ], [ 8.10028262451797, 51.552126954343976 ], [ 8.101292112710166, 51.552134690365925 ], [ 8.102301601352776, 51.552142417704651 ] ] ], [ [ [ 8.096219732115058, 51.55335459718372 ], [ 8.095210218329418, 51.553346817397149 ], [ 8.095197731648428, 51.553976153997425 ], [ 8.096207259361382, 51.553983933958349 ], [ 8.096219732115058, 51.55335459718372 ] ] ], [ [ [ 8.085960622655168, 51.561457758382282 ], [ 8.084950932335527, 51.561449889468321 ], [ 8.084938300419436, 51.562079223403074 ], [ 8.085948004672749, 51.562087092493393 ], [ 8.085960622655168, 51.561457758382282 ] ] ], [ [ [ 8.086907288610833, 51.564612289345838 ], [ 8.086894682272655, 51.565241623282716 ], [ 8.087904457118333, 51.565249475880634 ], [ 8.087917049520264, 51.564620141767755 ], [ 8.087929641464767, 51.563990807584794 ], [ 8.087942232951864, 51.563361473331767 ], [ 8.086932499913404, 51.563353621261847 ], [ 8.086945104877843, 51.562724287114733 ], [ 8.085935386231981, 51.562716426534415 ], [ 8.085922767332836, 51.563345760505349 ], [ 8.085910147975294, 51.563975094406203 ], [ 8.085897528159336, 51.564604428236954 ], [ 8.086907288610833, 51.564612289345838 ] ] ], [ [ [ 8.086604610054186, 51.579716284488732 ], [ 8.08659199271899, 51.58034561674372 ], [ 8.086579374925313, 51.58097494892862 ], [ 8.085569251967479, 51.580967083236978 ], [ 8.085556619765903, 51.581596415175483 ], [ 8.085543987105295, 51.5822257470439 ], [ 8.08553135398563, 51.58285507884225 ], [ 8.085518720406885, 51.583484410570513 ], [ 8.085506086369037, 51.584113742228702 ], [ 8.085493451872068, 51.584743073816796 ], [ 8.085480816915954, 51.58537240533483 ], [ 8.086491037530148, 51.585380272260842 ], [ 8.087501258603005, 51.585388130493463 ], [ 8.087488651093619, 51.586017462293931 ], [ 8.087476043126056, 51.586646794024333 ], [ 8.088486292563532, 51.586654643915487 ], [ 8.089496542458699, 51.586662485112825 ], [ 8.09050679281105, 51.586670317616353 ], [ 8.090519358918087, 51.586040985358615 ], [ 8.089509122519265, 51.586033153030677 ], [ 8.089521702122671, 51.585403820878469 ], [ 8.089534281268936, 51.584774488656187 ], [ 8.090544489762214, 51.584782320632975 ], [ 8.090557054499351, 51.584152988165073 ], [ 8.090569618779899, 51.583523655627118 ], [ 8.09058218260388, 51.582894323019104 ], [ 8.090594745971314, 51.582264990341031 ], [ 8.090607308882225, 51.581635657592912 ], [ 8.090619871336635, 51.581006324774727 ], [ 8.090632433334568, 51.580376991886503 ], [ 8.089622322494721, 51.580369161138591 ], [ 8.089634897984656, 51.579739828355841 ], [ 8.088624801550216, 51.57973198909179 ], [ 8.087614705573223, 51.57972414113609 ], [ 8.086604610054186, 51.579716284488732 ] ] ], [ [ [ 8.094159754094326, 51.60621084765819 ], [ 8.094172278491305, 51.605581516871013 ], [ 8.093161607470904, 51.605573713896447 ], [ 8.092150936906316, 51.605565902222168 ], [ 8.092163488785642, 51.604936571715065 ], [ 8.091152832646168, 51.604928751516454 ], [ 8.09114026679805, 51.605558081848201 ], [ 8.091127700493104, 51.606187412109932 ], [ 8.091115133731311, 51.606816742301611 ], [ 8.092125831778684, 51.606824563026265 ], [ 8.092138384570671, 51.606195232659239 ], [ 8.093149069104582, 51.606203044508661 ], [ 8.094159754094326, 51.60621084765819 ] ] ], [ [ [ 8.114708675001935, 51.537130287012907 ], [ 8.114696464477753, 51.537759628711761 ], [ 8.115705638754891, 51.537767239244189 ], [ 8.115693441702442, 51.538396581043642 ], [ 8.115681244207124, 51.539025922773121 ], [ 8.115669046268914, 51.539655264432632 ], [ 8.11565684788779, 51.540284606022198 ], [ 8.115644649063729, 51.54091394754181 ], [ 8.115632449796715, 51.541543288991456 ], [ 8.115620250086723, 51.542172630371148 ], [ 8.116629522223093, 51.542180233417298 ], [ 8.117638794801957, 51.542187827783202 ], [ 8.118648067822807, 51.54219541346886 ], [ 8.118660225778312, 51.541566071578607 ], [ 8.118672383292354, 51.540936729618416 ], [ 8.119681628918784, 51.540944306284246 ], [ 8.119693772074191, 51.540314964084317 ], [ 8.119705914788684, 51.539685621814449 ], [ 8.119718057062284, 51.53905627947465 ], [ 8.119730198895013, 51.538426937064898 ], [ 8.119742340286891, 51.537797594585214 ], [ 8.118733164241384, 51.537790018768284 ], [ 8.1187453191071, 51.537160676388417 ], [ 8.117736157417577, 51.53715309206256 ], [ 8.117748325756125, 51.536523749782702 ], [ 8.116739178422542, 51.536516156948309 ], [ 8.11573003153126, 51.536508555435432 ], [ 8.115742227255222, 51.535879213426114 ], [ 8.114733094720323, 51.53587160340529 ], [ 8.114745303914571, 51.535242261496542 ], [ 8.113736185736009, 51.53523464296817 ], [ 8.112727068001224, 51.535227015761741 ], [ 8.112714830980901, 51.535856357328854 ], [ 8.113723962628715, 51.535863984706204 ], [ 8.113711739077623, 51.53649332637427 ], [ 8.114720885082786, 51.536500945244072 ], [ 8.114708675001935, 51.537130287012907 ] ] ], [ [ [ 8.111448327394513, 51.549064874424516 ], [ 8.112457750887829, 51.549072514074552 ], [ 8.112469997242945, 51.54844317397685 ], [ 8.113479407257373, 51.548450804773523 ], [ 8.114488817716021, 51.548458426888061 ], [ 8.114501035780126, 51.547829086378556 ], [ 8.114513253400538, 51.547199745799084 ], [ 8.113503870787687, 51.547192124026182 ], [ 8.112494488619017, 51.547184493571535 ], [ 8.111485106895028, 51.547176854435108 ], [ 8.111472847506743, 51.547806194501568 ], [ 8.111460587673244, 51.548435534498026 ], [ 8.111448327394513, 51.549064874424516 ] ] ], [ [ [ 8.108346237908496, 51.552817938380947 ], [ 8.10733673264744, 51.552810262969636 ], [ 8.107324413543079, 51.553439601719411 ], [ 8.108333932731206, 51.553447277302737 ], [ 8.108346237908496, 51.552817938380947 ] ] ], [ [ [ 8.117370901720324, 51.556033327932376 ], [ 8.118380481069087, 51.556040917359049 ], [ 8.119390060859796, 51.556048498101191 ], [ 8.11940221460349, 51.555419157579742 ], [ 8.118392648742104, 51.555411577007504 ], [ 8.118404815973193, 51.554782236586007 ], [ 8.117395264482536, 51.554774647499528 ], [ 8.116385713434289, 51.554767049728909 ], [ 8.116397908080035, 51.554137709577851 ], [ 8.115388371402958, 51.554130103293595 ], [ 8.114378835169282, 51.554122488325405 ], [ 8.114366612667054, 51.554751828135316 ], [ 8.115376162828959, 51.554759443274172 ], [ 8.115363953811537, 51.55538878318481 ], [ 8.116373518345622, 51.555396389810028 ], [ 8.116361322814019, 51.556025729821187 ], [ 8.117370901720324, 51.556033327932376 ] ] ], [ [ [ 8.109578601247351, 51.593110835066476 ], [ 8.109590906704577, 51.592481500209267 ], [ 8.110601291702652, 51.592489160379955 ], [ 8.110613582754111, 51.591859825281063 ], [ 8.111623954240368, 51.591867476584454 ], [ 8.111636230887074, 51.591238141244055 ], [ 8.11062587335886, 51.591230490112196 ], [ 8.109615516277332, 51.591222830284963 ], [ 8.109627820392907, 51.590593495217867 ], [ 8.109640124061308, 51.589964160080818 ], [ 8.108629795341454, 51.589956491902051 ], [ 8.10861747771607, 51.590585826867191 ], [ 8.108605159643004, 51.591215161762371 ], [ 8.107594803456378, 51.591207484544427 ], [ 8.107582470977627, 51.591836819197532 ], [ 8.107570138050649, 51.592466153780649 ], [ 8.108580522153741, 51.592473831342836 ], [ 8.1085682027375, 51.593103166028108 ], [ 8.109578601247351, 51.593110835066476 ] ] ], [ [ [ 8.106016046857636, 51.620149112326587 ], [ 8.106028413508939, 51.619519780994437 ], [ 8.106040779710554, 51.618890449592328 ], [ 8.105029809791645, 51.61888274738898 ], [ 8.105042189523358, 51.618253416089615 ], [ 8.104031234034364, 51.618245705355264 ], [ 8.104018840322912, 51.618875036481718 ], [ 8.104006446160776, 51.619504367538191 ], [ 8.103994051547934, 51.620133698524718 ], [ 8.103981656484367, 51.62076302944125 ], [ 8.104992667895376, 51.620770740867265 ], [ 8.105005048977675, 51.620141409777801 ], [ 8.106016046857636, 51.620149112326587 ] ] ], [ [ [ 8.124969251767379, 51.528395185211728 ], [ 8.123960282191378, 51.528387655320778 ], [ 8.123948203040339, 51.529016999526455 ], [ 8.124957186524044, 51.529024529586138 ], [ 8.124969251767379, 51.528395185211728 ] ] ], [ [ [ 8.123948203040339, 51.529016999526455 ], [ 8.122939219995148, 51.529009460790547 ], [ 8.122927126497402, 51.52963880475739 ], [ 8.123936123450784, 51.529646343662208 ], [ 8.123948203040339, 51.529016999526455 ] ] ], [ [ [ 8.125664744811823, 51.544765641820952 ], [ 8.125652682094257, 51.545394984546149 ], [ 8.126662028232168, 51.545402501631827 ], [ 8.126649978997937, 51.546031844455577 ], [ 8.127659339494796, 51.546039353028235 ], [ 8.128668700428717, 51.54604685291941 ], [ 8.129678061799197, 51.546054344129061 ], [ 8.130687423605725, 51.546061826657208 ], [ 8.131696785847799, 51.546069300503831 ], [ 8.131708765474794, 51.545439956840681 ], [ 8.132718114230398, 51.545447421838482 ], [ 8.133727463420517, 51.545454878154942 ], [ 8.134736813044642, 51.545462325790041 ], [ 8.135746163102271, 51.545469764743778 ], [ 8.136755513592899, 51.545477195016154 ], [ 8.137764864516017, 51.545484616607141 ], [ 8.138774215871123, 51.545492029516758 ], [ 8.138786097615629, 51.544862684616753 ], [ 8.139795435481066, 51.544870088679026 ], [ 8.140804773777459, 51.544877484060095 ], [ 8.141814112504301, 51.544884870759944 ], [ 8.142823451661089, 51.544892248778567 ], [ 8.142811625601306, 51.545521594341118 ], [ 8.142799799112064, 51.546150939833829 ], [ 8.142787972193341, 51.54678028525673 ], [ 8.142776144845119, 51.547409630609785 ], [ 8.143785540119309, 51.547417000607815 ], [ 8.144794935822514, 51.547424361923817 ], [ 8.145804331954231, 51.547431714557788 ], [ 8.145816117534148, 51.546802368709812 ], [ 8.145827902686078, 51.546173022792019 ], [ 8.145839687410044, 51.545543676804421 ], [ 8.146849042202851, 51.545551020262607 ], [ 8.146860812577581, 51.544921674040602 ], [ 8.146872582524889, 51.544292327748792 ], [ 8.146884352044802, 51.543662981387165 ], [ 8.146896121137337, 51.543033634955727 ], [ 8.145886822026675, 51.54302629215578 ], [ 8.144877523343874, 51.543018940675161 ], [ 8.144889319847579, 51.542389594503192 ], [ 8.143880035512378, 51.542382234506846 ], [ 8.142870751606027, 51.542374865830027 ], [ 8.141861468129035, 51.542367488472749 ], [ 8.141849629867696, 51.542996834149299 ], [ 8.140840332901396, 51.542989447946056 ], [ 8.140852185081904, 51.542360102435019 ], [ 8.139842902465142, 51.542352707716866 ], [ 8.138833620279254, 51.54234530431826 ], [ 8.138845499866662, 51.541715959069002 ], [ 8.139854768133928, 51.541723362301695 ], [ 8.139866633371863, 51.541094016816693 ], [ 8.140875888151841, 51.541101411203428 ], [ 8.140887739041309, 51.540472065482881 ], [ 8.140899589500473, 51.539842719692473 ], [ 8.140911439529349, 51.539213373832226 ], [ 8.140923289127963, 51.538584027902139 ], [ 8.139914090015488, 51.538576634178192 ], [ 8.138904891333762, 51.538569231774964 ], [ 8.137895693083289, 51.538561820692479 ], [ 8.136886495264577, 51.538554400930764 ], [ 8.136874590001613, 51.539183746196926 ], [ 8.136862684306365, 51.539813091393228 ], [ 8.136850778178811, 51.540442436519648 ], [ 8.135841539042742, 51.540435007579262 ], [ 8.1348323003395, 51.540427569959064 ], [ 8.13482036594454, 51.541056914682493 ], [ 8.134808431116221, 51.541686259336025 ], [ 8.133799165010794, 51.54167881270228 ], [ 8.132789899339251, 51.541671357388346 ], [ 8.132777936240535, 51.542300701638062 ], [ 8.131768657084901, 51.542293237476677 ], [ 8.131756679632792, 51.542922581489243 ], [ 8.130747386993113, 51.542915108480031 ], [ 8.130735395186599, 51.543544452255233 ], [ 8.130723402944627, 51.54417379596056 ], [ 8.129714082900986, 51.544166313935456 ], [ 8.129702076303072, 51.544795657403213 ], [ 8.128692742774984, 51.544788166529308 ], [ 8.127683409683408, 51.544780666974297 ], [ 8.126674077028854, 51.544773158738167 ], [ 8.125664744811823, 51.544765641820952 ] ] ], [ [ [ 8.121421347650021, 51.555434292671194 ], [ 8.121409221765044, 51.556063633531849 ], [ 8.121397095439635, 51.556692974322601 ], [ 8.122406690483052, 51.556700529180432 ], [ 8.12239457764759, 51.557329870070561 ], [ 8.123404187061379, 51.557337416412764 ], [ 8.123392087716876, 51.55796675740212 ], [ 8.124401711501074, 51.557974295228291 ], [ 8.124389625648544, 51.558603636316697 ], [ 8.125399263803196, 51.558611165626459 ], [ 8.125387191443647, 51.559240506813694 ], [ 8.126396843968793, 51.55924802760665 ], [ 8.126384785103241, 51.559877368892558 ], [ 8.126372725799657, 51.560506710108548 ], [ 8.127382406628374, 51.56051422255269 ], [ 8.127394451998923, 51.559884881168308 ], [ 8.12840411933213, 51.559892384758292 ], [ 8.128416150332603, 51.559263043135843 ], [ 8.129425804170255, 51.559270537872059 ], [ 8.130435458444399, 51.559278023922687 ], [ 8.131445113154525, 51.55928550128769 ], [ 8.131457101921743, 51.55865615909201 ], [ 8.132466743135222, 51.558663627604012 ], [ 8.13347638478365, 51.558671087430582 ], [ 8.13346442388071, 51.559300429960864 ], [ 8.134474079895755, 51.559307881269 ], [ 8.134462132491024, 51.559937223896426 ], [ 8.135471802872726, 51.55994466668573 ], [ 8.135459868967214, 51.560574009410111 ], [ 8.136469553715616, 51.560581443680199 ], [ 8.136457633310336, 51.561210786501348 ], [ 8.136445712472046, 51.561840129252637 ], [ 8.136433791200725, 51.562469471934094 ], [ 8.135424064649616, 51.562462037164103 ], [ 8.134414338532068, 51.562454593707479 ], [ 8.134426287672852, 51.561825251359501 ], [ 8.133416575924068, 51.561817799383299 ], [ 8.133428538565003, 51.561188457132488 ], [ 8.132418841184942, 51.561180996637098 ], [ 8.132406864609834, 51.56181033872069 ], [ 8.131397153730656, 51.561802869371668 ], [ 8.130387443287042, 51.561795391336254 ], [ 8.130375438407583, 51.562424733014964 ], [ 8.130363433092036, 51.563054074623771 ], [ 8.130351427340381, 51.563683416162711 ], [ 8.131361179589426, 51.563690894700976 ], [ 8.131349187337793, 51.564320236337643 ], [ 8.13235895395864, 51.564327706356359 ], [ 8.133368721014623, 51.564335167687879 ], [ 8.13335675620073, 51.564964509589366 ], [ 8.133344790952183, 51.565593851420978 ], [ 8.132334996022287, 51.565586389754962 ], [ 8.132323016401347, 51.566215731349473 ], [ 8.132311036345207, 51.566845072874109 ], [ 8.132299055853844, 51.567474414328863 ], [ 8.132287074927236, 51.568103755713764 ], [ 8.133296925611029, 51.568111218048799 ], [ 8.134306776729586, 51.568118671695487 ], [ 8.134318729777704, 51.567489329976254 ], [ 8.135328567391234, 51.567496774767697 ], [ 8.136338405438492, 51.567504210870965 ], [ 8.136350330174819, 51.566874868748329 ], [ 8.136362254477948, 51.566245526555853 ], [ 8.136374178347902, 51.565616184293511 ], [ 8.137383975013464, 51.565623611209155 ], [ 8.138393772111675, 51.565631029437192 ], [ 8.138405667673865, 51.565001686772263 ], [ 8.138417562803932, 51.564372344037501 ], [ 8.139427332460127, 51.564379753245767 ], [ 8.139439213221769, 51.563750410275091 ], [ 8.140448969373217, 51.563757810630236 ], [ 8.140460835767446, 51.563128467423866 ], [ 8.141470578414109, 51.563135858926273 ], [ 8.141482430441936, 51.562506515484387 ], [ 8.141494282039242, 51.561877171972661 ], [ 8.141506133206045, 51.561247828391124 ], [ 8.142515834478653, 51.561255210710257 ], [ 8.142527671281121, 51.560625866893425 ], [ 8.141517983942364, 51.560618484739749 ], [ 8.141529834248225, 51.559989141018555 ], [ 8.140520161273258, 51.559981750344448 ], [ 8.139510488729234, 51.559974350984447 ], [ 8.139522366470276, 51.559345007524897 ], [ 8.138512708290486, 51.559337599645055 ], [ 8.138524599532369, 51.558708256281697 ], [ 8.138536490342336, 51.558078912848501 ], [ 8.138548380720408, 51.557449569345458 ], [ 8.138560270666606, 51.556820225772569 ], [ 8.139569873120335, 51.556827632988323 ], [ 8.139581748704426, 51.556198289179562 ], [ 8.139593623857191, 51.555568945300983 ], [ 8.139605498578646, 51.554939601352544 ], [ 8.139617372868818, 51.554310257334279 ], [ 8.13962924672772, 51.553680913246168 ], [ 8.139641120155382, 51.553051569088204 ], [ 8.139652993151815, 51.552422224860408 ], [ 8.139664865717048, 51.551792880562779 ], [ 8.13865537469116, 51.551785474675 ], [ 8.137645884096962, 51.551778060103899 ], [ 8.137633983678329, 51.552407404069363 ], [ 8.136624479589655, 51.552399980648559 ], [ 8.135614975933704, 51.552392548544226 ], [ 8.134605472710977, 51.552385107756386 ], [ 8.134593530078668, 51.553014451152315 ], [ 8.134581587012606, 51.553643794478369 ], [ 8.133572056368882, 51.553636344673102 ], [ 8.133560098940924, 51.554265687762324 ], [ 8.132550554803373, 51.554258229106026 ], [ 8.132562526159434, 51.553628886183965 ], [ 8.131552996384773, 51.553621419010938 ], [ 8.131564981233625, 51.552992076186342 ], [ 8.130555465821811, 51.552984600497012 ], [ 8.130543467045403, 51.553613943154062 ], [ 8.129533938141828, 51.553606458613324 ], [ 8.128524409674554, 51.553598965388737 ], [ 8.127514881644089, 51.553591463480316 ], [ 8.126505354050938, 51.553583952888054 ], [ 8.125495826895603, 51.553576433611987 ], [ 8.124486300178596, 51.553568905652092 ], [ 8.123476773900416, 51.553561369008399 ], [ 8.122467248061573, 51.553553823680922 ], [ 8.122479358257669, 51.552924482371267 ], [ 8.121469846786034, 51.552916928529299 ], [ 8.120460335754725, 51.552909366003746 ], [ 8.120448197703919, 51.553538706974621 ], [ 8.121457722662573, 51.55354626966966 ], [ 8.121445598098765, 51.554175610740096 ], [ 8.120436059212258, 51.554168047875557 ], [ 8.120423920279725, 51.554797388706554 ], [ 8.121433473094587, 51.5548049517406 ], [ 8.121421347650021, 51.555434292671194 ] ], [ [ 8.132526610786815, 51.555516914740529 ], [ 8.133536182782086, 51.555524373731174 ], [ 8.133524224051166, 51.556153716610794 ], [ 8.132514638126276, 51.556146257452966 ], [ 8.132526610786815, 51.555516914740529 ] ] ], [ [ [ 8.12207948943499, 51.573692708673448 ], [ 8.122067364712974, 51.574322047675871 ], [ 8.123077350439422, 51.574329598586381 ], [ 8.123065239221459, 51.57495893768813 ], [ 8.124075239332555, 51.574966480077478 ], [ 8.12406314161966, 51.575595819278419 ], [ 8.123053127563443, 51.575588276719998 ], [ 8.123041015465354, 51.576217615681955 ], [ 8.124051043467196, 51.576225158409443 ], [ 8.125061071908629, 51.576232692446126 ], [ 8.126071100789144, 51.576240217791998 ], [ 8.126059030089424, 51.576869557190712 ], [ 8.126046958951108, 51.577498896519522 ], [ 8.126034887374171, 51.578128235778443 ], [ 8.127044958533373, 51.578135752938977 ], [ 8.127032900465515, 51.578765092296514 ], [ 8.127020841959505, 51.579394431584163 ], [ 8.127008783015318, 51.580023770801937 ], [ 8.126996723632935, 51.580653109949822 ], [ 8.128006851024265, 51.580660619092228 ], [ 8.127994805153431, 51.581289958338552 ], [ 8.129004946932255, 51.581297458956897 ], [ 8.129016978853304, 51.58066811954243 ], [ 8.129029010337149, 51.580038780058075 ], [ 8.129041041383811, 51.579409440503852 ], [ 8.128030941452824, 51.579401940389921 ], [ 8.128042986010589, 51.578772600933945 ], [ 8.12805503013071, 51.578143261408094 ], [ 8.129065102165672, 51.578150761185782 ], [ 8.130075174637753, 51.578158252272033 ], [ 8.130087190425721, 51.577528912340263 ], [ 8.131097249387119, 51.577536394567346 ], [ 8.131109250791706, 51.576907054397964 ], [ 8.131121251760231, 51.576277714158721 ], [ 8.13113325229271, 51.57564837384961 ], [ 8.131145252389167, 51.575019033470632 ], [ 8.131157252049624, 51.574389693021793 ], [ 8.131169251274098, 51.573760352503065 ], [ 8.13217922699833, 51.573767825033777 ], [ 8.132191211843075, 51.573138484277692 ], [ 8.133201174058966, 51.573145947951005 ], [ 8.133213144524996, 51.572516606957741 ], [ 8.132203196252389, 51.57250914345174 ], [ 8.131193248415192, 51.572501671256013 ], [ 8.130183301013913, 51.572494190370577 ], [ 8.12917335404906, 51.572486700795451 ], [ 8.128163407521136, 51.572479202530644 ], [ 8.127153461430648, 51.572471695576162 ], [ 8.127165515118126, 51.571842355519735 ], [ 8.126155583408236, 51.571834840044048 ], [ 8.126143515778105, 51.572464179931998 ], [ 8.125133570564012, 51.572456655598181 ], [ 8.125121488552296, 51.573085995247588 ], [ 8.124111529834041, 51.573078462055264 ], [ 8.123101571555271, 51.573070920173109 ], [ 8.123089461217351, 51.573700259414686 ], [ 8.12207948943499, 51.573692708673448 ] ] ], [ [ [ 8.131507380096954, 51.609010795876301 ], [ 8.131519389359315, 51.608381459032302 ], [ 8.131531398185073, 51.607752122118463 ], [ 8.131543406574243, 51.607122785134763 ], [ 8.130532691104879, 51.607115303719972 ], [ 8.129521976072581, 51.607107813604763 ], [ 8.128511261477865, 51.607100314789129 ], [ 8.128499211175297, 51.607729651268997 ], [ 8.128487160434622, 51.608358987678997 ], [ 8.128475109255819, 51.608988324019137 ], [ 8.129485865765389, 51.6089958233392 ], [ 8.130496622712606, 51.609003313958247 ], [ 8.131507380096954, 51.609010795876301 ] ] ], [ [ [ 8.132646313479054, 51.549223483773012 ], [ 8.133655746205937, 51.549230941092155 ], [ 8.134665179366955, 51.549238389728778 ], [ 8.135674612961601, 51.549245829682867 ], [ 8.136684046989368, 51.549253260954423 ], [ 8.136695959171377, 51.548623916806022 ], [ 8.136707870920789, 51.547994572587776 ], [ 8.136719782237629, 51.54736522829964 ], [ 8.136731693121911, 51.546735883941672 ], [ 8.136743603573661, 51.546106539513843 ], [ 8.135734239161442, 51.546099109074945 ], [ 8.13472487518224, 51.546091669954492 ], [ 8.133715511636561, 51.54608422215248 ], [ 8.13370355941858, 51.54671356608015 ], [ 8.132694182384895, 51.546706109429493 ], [ 8.13268221581032, 51.547335453120184 ], [ 8.132670248801167, 51.54796479674102 ], [ 8.13265828135742, 51.548594140291954 ], [ 8.132646313479054, 51.549223483773012 ] ] ], [ [ [ 8.134235049320832, 51.571894720543831 ], [ 8.134247004974782, 51.571265379243741 ], [ 8.134258960194371, 51.570636037873811 ], [ 8.134270914979627, 51.570006696434014 ], [ 8.134282869330567, 51.569377354924363 ], [ 8.133272990331985, 51.569369900943535 ], [ 8.133261022040273, 51.569999242286102 ], [ 8.132251129535739, 51.569991779449239 ], [ 8.132239146867944, 51.570621120554662 ], [ 8.132227163764801, 51.571250461590225 ], [ 8.133237084152359, 51.571257924761653 ], [ 8.133225114556121, 51.571887265894631 ], [ 8.134235049320832, 51.571894720543831 ] ] ], [ [ [ 8.137017424632297, 51.531631598392067 ], [ 8.137005524123101, 51.532260944426717 ], [ 8.136993623181844, 51.532890290391506 ], [ 8.138002695778779, 51.532897708656968 ], [ 8.139011768807284, 51.532905118244933 ], [ 8.139023641926505, 51.532275771947887 ], [ 8.139035514614678, 51.531646425580981 ], [ 8.14004456025266, 51.531653826159754 ], [ 8.140056418599769, 51.531024479557153 ], [ 8.141065450758214, 51.53103187129318 ], [ 8.141077294765271, 51.530402524455106 ], [ 8.142086313444137, 51.530409907348734 ], [ 8.142098143112147, 51.529780560275377 ], [ 8.143107148311394, 51.529787934327025 ], [ 8.143118963641367, 51.529158587018593 ], [ 8.143130778542417, 51.528529239640307 ], [ 8.143142593014559, 51.527899892192195 ], [ 8.14415155691845, 51.527907257072165 ], [ 8.145160521250716, 51.527914613276138 ], [ 8.146169486010857, 51.527921960804115 ], [ 8.14717845119837, 51.527929299656073 ], [ 8.148187416812744, 51.527936629832006 ], [ 8.14819916132034, 51.52730728149087 ], [ 8.148210905401596, 51.52667793307991 ], [ 8.149219843628448, 51.526685254251724 ], [ 8.149231573377199, 51.526055905606896 ], [ 8.149243302700155, 51.52542655689227 ], [ 8.14925503159734, 51.52479720810782 ], [ 8.14926676006877, 51.524167859253566 ], [ 8.148257877463632, 51.524160538737917 ], [ 8.14724899528473, 51.524153209547386 ], [ 8.146240113532572, 51.52414587168203 ], [ 8.14523123220766, 51.524138525141815 ], [ 8.145219448117667, 51.524767873338789 ], [ 8.144210553315915, 51.524760517958917 ], [ 8.143201658942441, 51.52475315390403 ], [ 8.143189846614508, 51.525382501701344 ], [ 8.143178033857774, 51.526011849428812 ], [ 8.143166220672219, 51.526641197086455 ], [ 8.142157285010853, 51.526633823860934 ], [ 8.141148349778835, 51.52662644195982 ], [ 8.141136508351325, 51.52725578921698 ], [ 8.140127559642631, 51.527248398474697 ], [ 8.140115703878218, 51.527877745496397 ], [ 8.140103847683406, 51.528507092448258 ], [ 8.139094871590567, 51.528499692698581 ], [ 8.139083001057317, 51.529129039414777 ], [ 8.138074011487403, 51.529121630822949 ], [ 8.138062126614708, 51.529750977303273 ], [ 8.138050241310543, 51.530380323713743 ], [ 8.137041224354606, 51.530372906113165 ], [ 8.137029324709459, 51.53100225228755 ], [ 8.137017424632297, 51.531631598392067 ] ] ], [ [ [ 8.137074176105189, 51.581986491658718 ], [ 8.137062254916822, 51.582615832271593 ], [ 8.137050333295241, 51.583245172814664 ], [ 8.138060520843805, 51.583252595700159 ], [ 8.139070708825097, 51.58326000989257 ], [ 8.139082602543667, 51.582630669016908 ], [ 8.139094495830038, 51.582001328071435 ], [ 8.139106388684233, 51.581371987056116 ], [ 8.139118281106271, 51.580742645970972 ], [ 8.139130173096172, 51.580113304815995 ], [ 8.139142064653958, 51.579483963591187 ], [ 8.140152169365855, 51.579491368094523 ], [ 8.141162274509337, 51.579498763905939 ], [ 8.141174137738018, 51.578869422279531 ], [ 8.142184229364045, 51.578876809233428 ], [ 8.143194321420626, 51.578884187495561 ], [ 8.144204413907257, 51.578891557065958 ], [ 8.144216234860723, 51.578262214873547 ], [ 8.1452263138288, 51.578269575587171 ], [ 8.145214506823427, 51.578898917944585 ], [ 8.146224600168631, 51.578906270131434 ], [ 8.146212806682842, 51.579535612583854 ], [ 8.147222914405214, 51.57954295624355 ], [ 8.148233022555626, 51.579550291211248 ], [ 8.148244788144114, 51.57892094842979 ], [ 8.148256553305089, 51.578291605578528 ], [ 8.14926663398618, 51.578298931525786 ], [ 8.150276715094257, 51.578306248781431 ], [ 8.150288451932383, 51.577676905532137 ], [ 8.151298519519232, 51.577684213932336 ], [ 8.151310241983696, 51.577054870449423 ], [ 8.152320296049275, 51.577062169994555 ], [ 8.152332004141089, 51.576432826278236 ], [ 8.152343711807497, 51.575803482492148 ], [ 8.151333685634842, 51.575796183274271 ], [ 8.151345406821569, 51.575166839582025 ], [ 8.150335395020488, 51.575159531837109 ], [ 8.15032365988808, 51.575788875365546 ], [ 8.149313634567715, 51.575781558765975 ], [ 8.148303609674254, 51.57577423347557 ], [ 8.148291846223131, 51.576403576605998 ], [ 8.148280082344575, 51.577032919666642 ], [ 8.148268318038568, 51.577662262657476 ], [ 8.147258251732618, 51.57765492818303 ], [ 8.146248185854647, 51.577647585017189 ], [ 8.145238120405162, 51.577640233159954 ], [ 8.144228055384669, 51.577632872611325 ], [ 8.143217990793678, 51.577625503371337 ], [ 8.143206156322165, 51.578254845468358 ], [ 8.142196078213633, 51.578247467371611 ], [ 8.14220792663269, 51.577618125439976 ], [ 8.141197862902215, 51.577610738817256 ], [ 8.141209724837775, 51.576981396981381 ], [ 8.140199675485317, 51.576974001833086 ], [ 8.140211550936368, 51.576344660093149 ], [ 8.140223425955936, 51.575715318283386 ], [ 8.140235300544038, 51.575085976403805 ], [ 8.139225293460971, 51.57507857306225 ], [ 8.138215286809855, 51.575071161030131 ], [ 8.138203384330861, 51.575700502577618 ], [ 8.138191481419391, 51.576329844055266 ], [ 8.138179578075421, 51.576959185463075 ], [ 8.138167674298934, 51.577588526801044 ], [ 8.138155770089909, 51.578217868069181 ], [ 8.138143865448322, 51.578847209267472 ], [ 8.138131960374158, 51.579476550395931 ], [ 8.137121856526958, 51.579469128508762 ], [ 8.13710993707123, 51.580098469401022 ], [ 8.137098017182373, 51.580727810223429 ], [ 8.137086096860367, 51.581357150975997 ], [ 8.137074176105189, 51.581986491658718 ] ], [ [ 8.146236393225893, 51.57827692760921 ], [ 8.147246473051489, 51.578284270939669 ], [ 8.147234693942362, 51.578913613626504 ], [ 8.146224600168631, 51.578906270131434 ], [ 8.146236393225893, 51.57827692760921 ] ] ], [ [ [ 8.144617891849098, 51.556864538793278 ], [ 8.145627496883334, 51.556871893899462 ], [ 8.145639288885491, 51.556242549098705 ], [ 8.146648880417642, 51.556249895355286 ], [ 8.146660658061615, 51.555620550320086 ], [ 8.147670236091647, 51.555627887727425 ], [ 8.147681999378449, 51.554998542457959 ], [ 8.148691563906317, 51.555005871016476 ], [ 8.148703312836961, 51.554376525512964 ], [ 8.149712863862623, 51.554383845223022 ], [ 8.149724598438119, 51.553754499485663 ], [ 8.149736332587427, 51.553125153678494 ], [ 8.150745856182898, 51.553132464376638 ], [ 8.150757575978595, 51.552503118335828 ], [ 8.151767086072264, 51.552510420186486 ], [ 8.151778791515364, 51.551881073912242 ], [ 8.151790496533346, 51.551251727568207 ], [ 8.150781014293086, 51.551244426044853 ], [ 8.149771532478425, 51.551237115838248 ], [ 8.148762051089872, 51.551229796948391 ], [ 8.148750304292594, 51.551859142800922 ], [ 8.148738557068686, 51.552488488583627 ], [ 8.148726809418125, 51.553117834296536 ], [ 8.148715061340889, 51.553747179939663 ], [ 8.147705524670354, 51.553739851709643 ], [ 8.147717286675496, 51.553110506230773 ], [ 8.146707764360045, 51.553103169481176 ], [ 8.146695988427016, 51.55373251479562 ], [ 8.145686452611383, 51.553725169197619 ], [ 8.145674662322277, 51.554354514277613 ], [ 8.144665113006507, 51.554347159830783 ], [ 8.143655564119472, 51.554339796699793 ], [ 8.143643745544439, 51.55496914138012 ], [ 8.143631926540145, 51.555598485990622 ], [ 8.143620107106567, 51.556227830531284 ], [ 8.143608287243685, 51.556857175002158 ], [ 8.144617891849098, 51.556864538793278 ] ] ], [ [ [ 8.163275804130684, 51.530562943771493 ], [ 8.1642848321413, 51.530570135774539 ], [ 8.164273308059627, 51.5311994863685 ], [ 8.163264266138992, 51.531192294204288 ], [ 8.163252727728407, 51.531821644567337 ], [ 8.164261783559571, 51.531828836892714 ], [ 8.164250258641109, 51.532458187347189 ], [ 8.165259328801728, 51.532465371156214 ], [ 8.166268399380268, 51.532472546287693 ], [ 8.167277470376224, 51.53247971274164 ], [ 8.167288953561471, 51.531850361804821 ], [ 8.168298011063223, 51.531857519420825 ], [ 8.16828654178909, 51.532486870518028 ], [ 8.168275072098551, 51.533116221545512 ], [ 8.168263601991585, 51.533745572503285 ], [ 8.168252131468174, 51.534374923391312 ], [ 8.169261245033871, 51.534382072970764 ], [ 8.170270359015529, 51.534389213872061 ], [ 8.170281801713626, 51.533759862663807 ], [ 8.170293243996289, 51.533130511385828 ], [ 8.171302330568533, 51.533137643289329 ], [ 8.171313758524102, 51.532508291781824 ], [ 8.171325186064781, 51.531878940204606 ], [ 8.170316127315385, 51.531871808620728 ], [ 8.170304685863535, 51.532501160038123 ], [ 8.169295613618361, 51.53249401961687 ], [ 8.169307068981364, 51.531864668359454 ], [ 8.169318523928485, 51.531235317032333 ], [ 8.169329978459745, 51.53060596563548 ], [ 8.169341432575166, 51.529976614168909 ], [ 8.169352886274764, 51.529347262632605 ], [ 8.169364339558562, 51.52871791102659 ], [ 8.168355351188509, 51.528710762888885 ], [ 8.168366817964628, 51.528081411373314 ], [ 8.167357843918946, 51.528074254719577 ], [ 8.167369324186376, 51.527444903294629 ], [ 8.166360364465021, 51.527437738125265 ], [ 8.165351405160923, 51.527430564279904 ], [ 8.164342446274583, 51.52742338175856 ], [ 8.164330924284537, 51.528052732701248 ], [ 8.164319401876204, 51.528682083574189 ], [ 8.163310415592628, 51.528674892054589 ], [ 8.163298878857484, 51.529304242696639 ], [ 8.163287341703509, 51.529933593268936 ], [ 8.163275804130684, 51.530562943771493 ] ], [ [ 8.166279896476606, 51.53184319551147 ], [ 8.165270839809139, 51.531836020540766 ], [ 8.16528235039865, 51.531206669855578 ], [ 8.16629139315555, 51.531213844665501 ], [ 8.167300436329825, 51.531221010798276 ], [ 8.167288953561471, 51.531850361804821 ], [ 8.166279896476606, 51.53184319551147 ] ], [ [ 8.165305370324047, 51.529947968275977 ], [ 8.166314385261328, 51.529955142764365 ], [ 8.166302889417118, 51.530584493749807 ], [ 8.165293860570277, 51.530577319100651 ], [ 8.165305370324047, 51.529947968275977 ] ] ], [ [ [ 8.155770178949288, 51.554427581114531 ], [ 8.15677973294779, 51.554434840034908 ], [ 8.157789287368963, 51.554442090271003 ], [ 8.158798842212299, 51.554449331822823 ], [ 8.158810451430975, 51.553819984617782 ], [ 8.157800910516258, 51.553812743228256 ], [ 8.156791370023681, 51.553805493154655 ], [ 8.156803006676924, 51.553176146204621 ], [ 8.15781253324141, 51.553183396115756 ], [ 8.158822060228019, 51.553190637342972 ], [ 8.158833668603444, 51.552561289998415 ], [ 8.157824155544441, 51.55255404893348 ], [ 8.157835777425367, 51.551924701681457 ], [ 8.156826278715547, 51.551917452095303 ], [ 8.156837914100965, 51.551288104935971 ], [ 8.155828429740286, 51.551280846828995 ], [ 8.154818945802678, 51.551273580038718 ], [ 8.154807282564173, 51.551902926872508 ], [ 8.155816780428312, 51.551910193825634 ], [ 8.155805130693247, 51.552539540752512 ], [ 8.155793480535067, 51.553168887609623 ], [ 8.155781829953753, 51.553798234396965 ], [ 8.155770178949288, 51.554427581114531 ] ] ] ] } },
{ "type": "Feature", "properties": { "spot": "hotspot" }, "geometry": { "type": "MultiPolygon", "coordinates": [ [ [ [ 8.08249170526414, 51.533106154844639 ], [ 8.083500767716794, 51.533114041858646 ], [ 8.083513406369972, 51.532484705052234 ], [ 8.083526044564314, 51.531855368175727 ], [ 8.08251700993187, 51.531847481515186 ], [ 8.082504357827675, 51.532476818214967 ], [ 8.08249170526414, 51.533106154844639 ] ] ], [ [ [ 8.083032814787504, 51.556399454407426 ], [ 8.083020158682304, 51.557028788549673 ], [ 8.083007502117413, 51.55765812262181 ], [ 8.082994845092802, 51.558287456623844 ], [ 8.082982187608458, 51.558916790555784 ], [ 8.082969529664352, 51.559546124417608 ], [ 8.082956871260466, 51.560175458209343 ], [ 8.083966532796193, 51.560183344141748 ], [ 8.08397917726797, 51.559554010173272 ], [ 8.084988825330864, 51.559561887243547 ], [ 8.084976194791217, 51.560191221388564 ], [ 8.085985857245035, 51.560199089949798 ], [ 8.085998473852529, 51.559569755628424 ], [ 8.087008122832456, 51.559577615327889 ], [ 8.086995520157139, 51.560206949825414 ], [ 8.088005183527024, 51.560214801015434 ], [ 8.087992594326629, 51.560844135618858 ], [ 8.087980004668937, 51.561473470152194 ], [ 8.088989696362052, 51.561481313008144 ], [ 8.088977120180777, 51.562110647647202 ], [ 8.089986826264465, 51.562118481992734 ], [ 8.089974263560622, 51.562747816737307 ], [ 8.089961700400428, 51.563377151411814 ], [ 8.089949136783865, 51.56400648601624 ], [ 8.089936572710904, 51.564635820550606 ], [ 8.08992400818153, 51.565265155014927 ], [ 8.089911443195716, 51.565894489409168 ], [ 8.089898877753443, 51.566523823733327 ], [ 8.089886311854688, 51.567153157987427 ], [ 8.089873745499428, 51.567782492171467 ], [ 8.089861178687645, 51.568411826285441 ], [ 8.0908710245933, 51.568419653698967 ], [ 8.090858471264315, 51.569048987918322 ], [ 8.089848611419313, 51.569041160329348 ], [ 8.088838752030879, 51.569033324051993 ], [ 8.087828893099525, 51.569025479086299 ], [ 8.086819034625748, 51.569017625432259 ], [ 8.085809176610061, 51.569009763089873 ], [ 8.085796553125967, 51.569639096359943 ], [ 8.085783929183252, 51.570268429559931 ], [ 8.0857713047819, 51.570897762689839 ], [ 8.084761405404057, 51.570889891129831 ], [ 8.084748766602782, 51.571519224013201 ], [ 8.083738853742865, 51.571511343587666 ], [ 8.083751506485379, 51.570882010880929 ], [ 8.082741608026376, 51.57087412194312 ], [ 8.081731710027551, 51.57086622431644 ], [ 8.081744390191799, 51.570236891893451 ], [ 8.08175706989538, 51.56960755940036 ], [ 8.080747200238072, 51.569599653439241 ], [ 8.079737331041912, 51.569591738789633 ], [ 8.078727462307404, 51.569583815451551 ], [ 8.077717594035057, 51.569575883425017 ], [ 8.077704858570959, 51.570205215208098 ], [ 8.076694976821205, 51.570197274315127 ], [ 8.076682226953839, 51.570826605850094 ], [ 8.075672331726723, 51.570818656090303 ], [ 8.075659567455077, 51.571447987376935 ], [ 8.075646802719685, 51.572077318593429 ], [ 8.074636880073705, 51.572069359788038 ], [ 8.074624100932491, 51.572698690756006 ], [ 8.074611321326982, 51.573328021653836 ], [ 8.074598541257153, 51.573957352481543 ], [ 8.074585760722986, 51.57458668323909 ], [ 8.074572979724453, 51.575216013926507 ], [ 8.075582972085769, 51.575223973623949 ], [ 8.075570204567438, 51.575853304419653 ], [ 8.076580211337241, 51.57586125560514 ], [ 8.077590218570439, 51.575869198100243 ], [ 8.078600226266525, 51.575877131904939 ], [ 8.078612951950966, 51.575247800575141 ], [ 8.07962294616476, 51.575255725511788 ], [ 8.079635657442671, 51.574626393934224 ], [ 8.079648368258752, 51.573997062286551 ], [ 8.078638401932789, 51.573989137705169 ], [ 8.078651126230216, 51.573359806164994 ], [ 8.078663850065352, 51.572730474554724 ], [ 8.078676573438214, 51.572101142874324 ], [ 8.079686497936232, 51.572109066922827 ], [ 8.080696422895988, 51.57211698228209 ], [ 8.080709117923307, 51.571487650176543 ], [ 8.081719029402622, 51.571495556669326 ], [ 8.081706348316983, 51.572124888952096 ], [ 8.081693666770613, 51.572754221164779 ], [ 8.082703606594547, 51.572762119322554 ], [ 8.082690938530142, 51.573391451642159 ], [ 8.083700892757058, 51.57339934128732 ], [ 8.083713546878725, 51.572770008790869 ], [ 8.084723487622643, 51.572777889569686 ], [ 8.085733428825794, 51.572785761659034 ], [ 8.086743370487671, 51.572793625058893 ], [ 8.086730758194349, 51.573422958084727 ], [ 8.087740714257272, 51.573430812971139 ], [ 8.08875067077793, 51.573438659167834 ], [ 8.088738085913054, 51.574067992475555 ], [ 8.088725500590924, 51.574697325713174 ], [ 8.088712914811522, 51.575326658880748 ], [ 8.088700328574825, 51.57595599197824 ], [ 8.089710341329257, 51.575963830187987 ], [ 8.089697768580645, 51.576593163391131 ], [ 8.090707795737311, 51.576600993085883 ], [ 8.091717823350303, 51.576608814089923 ], [ 8.091705278036741, 51.577238147573816 ], [ 8.092715320051525, 51.577245960062271 ], [ 8.093725362521647, 51.577253763859801 ], [ 8.094735405446597, 51.577261558966391 ], [ 8.095745448825866, 51.577269345382042 ], [ 8.095732958842516, 51.57789867949522 ], [ 8.096743016622172, 51.577906457394278 ], [ 8.097753074855156, 51.577914226602182 ], [ 8.09774061231214, 51.578543560993836 ], [ 8.096730540132059, 51.578535791611777 ], [ 8.096718063188597, 51.579165125759246 ], [ 8.09772814931628, 51.579172895315473 ], [ 8.098738235896832, 51.579180656180149 ], [ 8.098725786396235, 51.579809990605746 ], [ 8.097715685867552, 51.5798022295671 ], [ 8.097703221965935, 51.580431563748697 ], [ 8.097690757611407, 51.581060897860269 ], [ 8.096680629637873, 51.58105312778153 ], [ 8.096668150880783, 51.581682461648896 ], [ 8.096655671670231, 51.58231179544623 ], [ 8.096643192006198, 51.582941129173548 ], [ 8.09765336183014, 51.582948899774848 ], [ 8.09764089566375, 51.583578233606332 ], [ 8.098651079891862, 51.583585995688914 ], [ 8.09863862722413, 51.584215329624385 ], [ 8.099648825856457, 51.584223083187858 ], [ 8.099636386688399, 51.584852417227118 ], [ 8.09962394706829, 51.585481751196383 ], [ 8.100634174057609, 51.58548949641397 ], [ 8.101644401498488, 51.585497232938039 ], [ 8.101656813213104, 51.58486789862171 ], [ 8.102667027152263, 51.584875626279008 ], [ 8.10267942446357, 51.584246291719452 ], [ 8.103689624900966, 51.584254010510364 ], [ 8.10469982578836, 51.58426172060809 ], [ 8.10571002712525, 51.58426942201266 ], [ 8.106720228911126, 51.584277114724038 ], [ 8.107730431145482, 51.584284798742232 ], [ 8.108740633827813, 51.584292474067226 ], [ 8.108728320230592, 51.58492180966207 ], [ 8.109738537312809, 51.58492947646571 ], [ 8.110748754842009, 51.584937134575959 ], [ 8.110761040534362, 51.58430779863756 ], [ 8.11177124455757, 51.584315447882894 ], [ 8.112781449026723, 51.584323088434978 ], [ 8.112793706368684, 51.583693752083875 ], [ 8.111783515851512, 51.583686111703067 ], [ 8.110773325780261, 51.583678462629209 ], [ 8.110785610579732, 51.583049126550883 ], [ 8.110797894932791, 51.582419790402611 ], [ 8.110810178839463, 51.581790454184365 ], [ 8.110822462299767, 51.581161117896173 ], [ 8.111832596568247, 51.581168766284179 ], [ 8.112842731282566, 51.581176405979924 ], [ 8.112854986397654, 51.580547069279071 ], [ 8.113865107607836, 51.580554700111485 ], [ 8.113852866442217, 51.581184036983394 ], [ 8.113840624831774, 51.581813373785373 ], [ 8.114850774386245, 51.581820996267446 ], [ 8.114863002046693, 51.581191659294589 ], [ 8.115873138095488, 51.581199272913501 ], [ 8.115860924385057, 51.581828610057023 ], [ 8.116871074827705, 51.581836215154112 ], [ 8.117881225713676, 51.581843811558691 ], [ 8.117893411524006, 51.581214474074407 ], [ 8.117905596891541, 51.580585136520185 ], [ 8.117917781816296, 51.579955798896037 ], [ 8.117929966298297, 51.579326461201944 ], [ 8.117942150337562, 51.578697123437948 ], [ 8.117954333934115, 51.578067785604013 ], [ 8.117966517087975, 51.577438447700146 ], [ 8.118976570776837, 51.577446034221666 ], [ 8.118988739541491, 51.57681669607782 ], [ 8.119000907864002, 51.576187357864036 ], [ 8.120010934102424, 51.576194935354692 ], [ 8.12002308803727, 51.575565596901136 ], [ 8.120035241530521, 51.574936258377654 ], [ 8.120047394582201, 51.574306919784256 ], [ 8.12005954719233, 51.573677581120933 ], [ 8.120071699360928, 51.573048242387692 ], [ 8.119061742845156, 51.573040665746262 ], [ 8.119073908515254, 51.572411327112931 ], [ 8.120083851088014, 51.572418903584527 ], [ 8.120096002373614, 51.57178956471143 ], [ 8.121105931445337, 51.57179713232378 ], [ 8.121118068347451, 51.571167793211146 ], [ 8.122127983918094, 51.571175351964648 ], [ 8.123137899929173, 51.571182902028902 ], [ 8.123150008507258, 51.570553562507683 ], [ 8.122140106437735, 51.570546012612652 ], [ 8.122152228516965, 51.569916673190761 ], [ 8.122164350155801, 51.569287333698959 ], [ 8.122176471354271, 51.568657994137226 ], [ 8.122188592112391, 51.568028654505575 ], [ 8.122200712430184, 51.567399314804021 ], [ 8.123210544799523, 51.567406863852959 ], [ 8.123222650738493, 51.566777523912286 ], [ 8.124232469609094, 51.566785064104138 ], [ 8.124244561170251, 51.566155723924538 ], [ 8.125254366542073, 51.566163255259681 ], [ 8.125266443726431, 51.565533914841374 ], [ 8.125278520472063, 51.564904574353164 ], [ 8.126288298407999, 51.564912096663377 ], [ 8.126300360778375, 51.564282755936674 ], [ 8.126312422710573, 51.563653415140074 ], [ 8.127322173212058, 51.563660928426152 ], [ 8.12833192415119, 51.563668433025299 ], [ 8.128343957774081, 51.563039091822183 ], [ 8.127334220770535, 51.563031587391244 ], [ 8.127346267891385, 51.562402246286453 ], [ 8.126336545260525, 51.562394733337172 ], [ 8.12634860587832, 51.561765392330855 ], [ 8.125338897620106, 51.561757870863595 ], [ 8.125350971733834, 51.561128529955973 ], [ 8.124341277848224, 51.561120999971166 ], [ 8.124353365456875, 51.560491659162416 ], [ 8.123343685943825, 51.560484120660412 ], [ 8.123355787046387, 51.559854779950719 ], [ 8.122346121905855, 51.559847232931943 ], [ 8.122358236501315, 51.559217892321477 ], [ 8.121348585733259, 51.559210336786322 ], [ 8.121360713820607, 51.558580996275275 ], [ 8.120351077424985, 51.558573432224122 ], [ 8.119341441470386, 51.558565859487643 ], [ 8.118331805957315, 51.558558278065853 ], [ 8.118343975398256, 51.557928937994056 ], [ 8.117334354258546, 51.557921348057079 ], [ 8.116324733561354, 51.557913749434988 ], [ 8.115315113307188, 51.557906142127806 ], [ 8.115327324098518, 51.557276802496986 ], [ 8.114317718218638, 51.557269186675413 ], [ 8.113308112782773, 51.557261562168947 ], [ 8.112298507791429, 51.55725392897763 ], [ 8.112310759929942, 51.556624589789507 ], [ 8.111301169313812, 51.556616948084574 ], [ 8.110291579143194, 51.556609297694997 ], [ 8.109281989418589, 51.556601638620762 ], [ 8.108272400140509, 51.55659397086189 ], [ 8.108260092281373, 51.557223309363764 ], [ 8.107250489520217, 51.557215632748182 ], [ 8.106240887206615, 51.557207947447814 ], [ 8.106228551039235, 51.557837285535392 ], [ 8.10521893524313, 51.557829591377761 ], [ 8.105206584696596, 51.558458929222908 ], [ 8.104196955418029, 51.558451226207623 ], [ 8.103187326588579, 51.558443514507182 ], [ 8.103174947730345, 51.559072851936826 ], [ 8.102165305419003, 51.559065131378162 ], [ 8.102152912179109, 51.559694468564771 ], [ 8.101143256385921, 51.559686739147502 ], [ 8.101130848763352, 51.560316076090857 ], [ 8.10012117948836, 51.560308337814618 ], [ 8.099111510664571, 51.560300590852648 ], [ 8.099123946152076, 51.559671254256365 ], [ 8.099136381187897, 51.559041917590051 ], [ 8.098126740680186, 51.559034162290011 ], [ 8.098139189195765, 51.558404825727493 ], [ 8.097129563071631, 51.558397061916132 ], [ 8.096119937400152, 51.558389289419658 ], [ 8.096132413325355, 51.55775995313531 ], [ 8.096144888797417, 51.557130616780917 ], [ 8.095135291440304, 51.557122835948128 ], [ 8.095147780389089, 51.556493499698085 ], [ 8.095160268884273, 51.55586416337799 ], [ 8.094150699839922, 51.555856374209633 ], [ 8.094163201810334, 51.555227037994058 ], [ 8.09315364714886, 51.555219240316163 ], [ 8.092144092941952, 51.555211433954149 ], [ 8.091134539190122, 51.555203618908031 ], [ 8.091147082491252, 51.554574283147275 ], [ 8.090137543123221, 51.554566459592401 ], [ 8.090124985893874, 51.555195795177816 ], [ 8.089115433053713, 51.555187962763533 ], [ 8.088105880670147, 51.555180121665181 ], [ 8.08811846575586, 51.55455078643103 ], [ 8.087108927757544, 51.554542936824539 ], [ 8.087096328743678, 51.555172271882753 ], [ 8.086086777274815, 51.555164413416286 ], [ 8.08507722626406, 51.555156546265756 ], [ 8.084067675711925, 51.555148670431201 ], [ 8.084055034454614, 51.555778004890364 ], [ 8.083045470433031, 51.555770120195064 ], [ 8.083032814787504, 51.556399454407426 ] ], [ [ 8.086755982322773, 51.572164291962991 ], [ 8.086768593699677, 51.571534958796995 ], [ 8.08777850793564, 51.571542813155226 ], [ 8.087765910500549, 51.572172146497273 ], [ 8.087753312607768, 51.57280147976924 ], [ 8.086743370487671, 51.572793625058893 ], [ 8.086755982322773, 51.572164291962991 ] ], [ [ 8.102140518489046, 51.560323805681364 ], [ 8.102128124348788, 51.560953142727939 ], [ 8.101118440690088, 51.560945412964188 ], [ 8.101130848763352, 51.560316076090857 ], [ 8.102140518489046, 51.560323805681364 ] ], [ [ 8.103063517769719, 51.564736885653396 ], [ 8.102053750052001, 51.564729163537187 ], [ 8.101043982784628, 51.564721432733855 ], [ 8.101056393562535, 51.564092096280625 ], [ 8.100046640682033, 51.564084356963669 ], [ 8.100059064944629, 51.56345502061388 ], [ 8.101068803889614, 51.563462759757371 ], [ 8.101081213765887, 51.562833423164101 ], [ 8.102090939226649, 51.562841153447607 ], [ 8.103100665137687, 51.562848875044608 ], [ 8.103088283131498, 51.563478211984211 ], [ 8.104098023427385, 51.563485925067539 ], [ 8.104085654906983, 51.564115262110015 ], [ 8.103075900675517, 51.564107548853805 ], [ 8.103063517769719, 51.564736885653396 ] ] ], [ [ [ 8.098201424991833, 51.555258141864414 ], [ 8.09818897873679, 51.555887478777088 ], [ 8.09919854959243, 51.555895233208098 ], [ 8.099186116814726, 51.556524570224553 ], [ 8.10019570205135, 51.556532316144803 ], [ 8.101205287739047, 51.556540053380502 ], [ 8.10221487387731, 51.556547781931627 ], [ 8.102227264866677, 51.555918444394955 ], [ 8.103236837525516, 51.55592616408849 ], [ 8.104246410633889, 51.555933875097608 ], [ 8.104258773315227, 51.555304537145105 ], [ 8.104271135547558, 51.554675199122585 ], [ 8.105280681247413, 51.554682901102069 ], [ 8.105293029102739, 51.554053562836934 ], [ 8.104283497330901, 51.554045861030062 ], [ 8.103273966008025, 51.55403815053937 ], [ 8.103286341269891, 51.553408812549655 ], [ 8.102276824323953, 51.553401093548146 ], [ 8.101267307827968, 51.553393365863045 ], [ 8.10125490471119, 51.554022703506568 ], [ 8.100245374738243, 51.554014966964473 ], [ 8.099235845216281, 51.554007221738594 ], [ 8.099223413793187, 51.554636558965122 ], [ 8.099210981918578, 51.555265896121625 ], [ 8.098201424991833, 51.555258141864414 ] ] ], [ [ [ 8.11138701932162, 51.552211573007391 ], [ 8.111374756371045, 51.552840912514043 ], [ 8.112384263416665, 51.552848553191431 ], [ 8.113393770907164, 51.55285618518532 ], [ 8.114403278842033, 51.552863808495701 ], [ 8.115412787220768, 51.552871423122561 ], [ 8.116422296042861, 51.552879029065892 ], [ 8.116434489359984, 51.552249688704997 ], [ 8.116446682234272, 51.551620348274135 ], [ 8.11543720126514, 51.551612742671729 ], [ 8.115449407622339, 51.550983402341366 ], [ 8.115461613536242, 51.550354061941064 ], [ 8.114452160861322, 51.550346447996809 ], [ 8.113442708630183, 51.550338825369792 ], [ 8.11243325684333, 51.55033119406005 ], [ 8.11142380550127, 51.550323554067589 ], [ 8.110414354604504, 51.550315905392402 ], [ 8.110402079064837, 51.550945244937559 ], [ 8.109392614688785, 51.550937587408072 ], [ 8.109380324777698, 51.551566926711629 ], [ 8.110389803079345, 51.551574584412755 ], [ 8.110377526648008, 51.552203923817942 ], [ 8.11138701932162, 51.552211573007391 ] ] ], [ [ [ 8.111734427999984, 51.58620345600265 ], [ 8.110724182117858, 51.586195806242863 ], [ 8.110711895086018, 51.586825141971381 ], [ 8.111722154922131, 51.586832791902658 ], [ 8.111734427999984, 51.58620345600265 ] ] ], [ [ [ 8.113791653941316, 51.584330720293835 ], [ 8.113779410106424, 51.584960056746084 ], [ 8.11478962941848, 51.584967680082578 ], [ 8.11480185930084, 51.584338343459429 ], [ 8.113791653941316, 51.584330720293835 ] ] ], [ [ [ 8.120887391782516, 51.58312522439558 ], [ 8.12089953662516, 51.582495886541423 ], [ 8.120911681026485, 51.581866548617356 ], [ 8.119901528813573, 51.58185897829032 ], [ 8.118891377042468, 51.581851399270775 ], [ 8.118879204739905, 51.582480736855231 ], [ 8.119889370461618, 51.582488316044682 ], [ 8.119877211667838, 51.58311765372914 ], [ 8.118867031995007, 51.583110074369777 ], [ 8.118854858807753, 51.583739411814399 ], [ 8.119865052432207, 51.583746991343673 ], [ 8.12087524649853, 51.583754562179827 ], [ 8.120887391782516, 51.58312522439558 ] ] ], [ [ [ 8.145733609485903, 51.551207788179475 ], [ 8.145721820909518, 51.551837133538733 ], [ 8.146731314943068, 51.55184447864287 ], [ 8.146743089593105, 51.551215133119008 ], [ 8.145733609485903, 51.551207788179475 ] ] ], [ [ [ 8.15272982628008, 51.555035098406407 ], [ 8.152718132640604, 51.555664444495186 ], [ 8.153727713226614, 51.555671729794881 ], [ 8.153716033092438, 51.556301075977153 ], [ 8.154725628032729, 51.556308352755309 ], [ 8.154737294236853, 51.555679006409953 ], [ 8.154748960017255, 51.555049659994808 ], [ 8.154760625373958, 51.554420313509894 ], [ 8.153751072222308, 51.554413037220996 ], [ 8.153762751083866, 51.553783690829384 ], [ 8.153774429521258, 51.553154344367996 ], [ 8.15276490465032, 51.55314705972139 ], [ 8.152753212284917, 51.553776406019516 ], [ 8.152741519494844, 51.554405752247852 ], [ 8.15272982628008, 51.555035098406407 ] ] ] ] } }
]
}
